country,city,village,number,name,address,administration,latitude,longitude,grade,type2,type,exec,diaper
9020,9020030,正義里,W030000131,金門航空站候機室1號無障礙廁所,金門縣金湖鎮正義里尚義機場2號,交通部民用航空局,24.43541676,118.3679274,特優級,交通,無障礙廁所,交通部民用航空局金門航空站,0
9020,9020030,正義里,W030000130,金門航空站候機室1號女廁,金門縣金湖鎮正義里尚義機場2號,交通部民用航空局,24.43541676,118.3679274,特優級,交通,女廁所,交通部民用航空局金門航空站,0
9020,9020030,正義里,W030000129,金門航空站候機室1號男廁,金門縣金湖鎮正義里尚義機場2號,交通部民用航空局,24.43541676,118.3679274,特優級,交通,男廁所,交通部民用航空局金門航空站,0
9020,9020030,正義里,W030000128,金門航空站候機室2號無障礙廁所,金門縣金湖鎮正義里尚義機場2號,交通部民用航空局,24.43541676,118.3679274,特優級,交通,無障礙廁所,交通部民用航空局金門航空站,0
9020,9020030,正義里,W030000127,金門航空站候機室2號女廁,金門縣金湖鎮正義里尚義機場2號,交通部民用航空局,24.43541676,118.3679274,特優級,交通,女廁所,交通部民用航空局金門航空站,1
9020,9020030,正義里,W030000126,金門航空站候機室2號男廁,金門縣金湖鎮正義里尚義機場2號,交通部民用航空局,24.435551,118.3679274,特優級,交通,男廁所,交通部民用航空局金門航空站,1
9020,9020040,盤山村,W040000051,家樂福金門店-無障礙廁所,金門縣金寧鄉盤山村伯玉路二段223號,家樂福金門店,24.44028363,118.3380333,特優級,商業營業場所,無障礙廁所,家樂福金門店,0
9020,9020040,盤山村,W040000050,家樂福金門店-女廁,金門縣金寧鄉盤山村伯玉路二段223號,家樂福金門店,24.44028363,118.3380333,特優級,商業營業場所,女廁所,家樂福金門店,0
9020,9020040,盤山村,W040000049,家樂福金門店-男廁,金門縣金寧鄉盤山村伯玉路二段223號,家樂福金門店,24.44028363,118.3380333,特優級,商業營業場所,男廁所,家樂福金門店,0
9020,9020030,山外里,W030000115,金門植物園女廁,金門縣金湖鎮山外里太武山10號,縣市政府,24.45530791,118.3967501,特優級,公園,女廁所,金門縣林務所,1
9020,9020030,山外里,W030000114,金門植物園男廁,金門縣金湖鎮山外里太武山10號,縣市政府,24.45530791,118.3967501,特優級,公園,男廁所,金門縣林務所,0
9020,9020050,上林村,W050000051,衛福部金門醫院烈嶼分院無障礙廁所,金門縣烈嶼鄉上林村后井37號,衛生福利部,24.43099328,118.2425126,特優級,社福機構、集會場所,無障礙廁所,衛生福利部金門醫院烈嶼分院,0
9020,9020050,上林村,W050000050,衛福部金門醫院烈嶼分院女廁,金門縣烈嶼鄉上林村后井37號,衛生福利部,24.43099328,118.2425126,特優級,社福機構、集會場所,女廁所,衛生福利部金門醫院烈嶼分院,0
9020,9020050,林湖村,W050000049,四維坑道無障礙廁所,金門縣烈嶼鄉林湖村四維坑道,內政部國家公園署,24.42418074,118.2623965,特優級,觀光地區及風景區,無障礙廁所,金門國家公園管理處,1
9020,9020050,林湖村,W050000048,四維坑道女廁,金門縣烈嶼鄉林湖村四維坑道,內政部國家公園署,24.42418074,118.2623965,特優級,觀光地區及風景區,女廁所,金門國家公園管理處,0
9020,9020010,金水里,W010000064,僑鄉館公廁,金門縣金城鎮金水里前水頭,內政部國家公園署,24.40971768,118.2988347,特優級,觀光地區及風景區,混合廁所,金門國家公園管理處,0
9020,9020030,蓮庵里,W030000097,畜試所1F無障礙廁所,金門縣金湖鎮蓮庵里惠民富康農莊17號,縣市政府,24.43336498,118.4384637,特優級,民眾洽公場所,無障礙廁所,金門縣畜產試驗所,0
9020,9020030,蓮庵里,W030000096,畜試所1F女廁,金門縣金湖鎮蓮庵里惠民富康農莊17號,縣市政府,24.43336498,118.4384637,特優級,民眾洽公場所,女廁所,金門縣畜產試驗所,0
9020,9020030,蓮庵里,W030000095,畜試所1F男廁,金門縣金湖鎮蓮庵里惠民富康農莊17號,縣市政府,24.43336498,118.4384637,特優級,民眾洽公場所,男廁所,金門縣畜產試驗所,0
9020,9020010,東門里,W010000083,浯江溪停車場3號無障礙廁所,金門縣金城鎮東門里浯江北堤路旁,縣市政府,24.42958011,118.321268,特優級,民眾洽公場所,無障礙廁所,金門縣政府觀光處,0
9020,9020010,東門里,W010000082,浯江溪停車場2號親子廁所,金門縣金城鎮東門里北堤路停車場,縣市政府,24.42940294,118.3182753,特優級,交通,親子廁所,金門縣政府觀光處,0
9020,9020010,東門里,W010000081,浯江溪停車場2號無障礙廁所,金門縣金城鎮東門里北堤路停車場,縣市政府,24.42940294,118.3182753,特優級,交通,無障礙廁所,金門縣政府觀光處,0
9020,9020010,南門里,W010000080,浯江溪停車場1號親子廁所,金門縣金城鎮南門里北堤路停車場,縣市政府,24.42899818,118.3157274,特優級,交通,親子廁所,金門縣政府觀光處,0
9020,9020010,南門里,W010000079,浯江溪停車場1號無障礙廁所,金門縣金城鎮南門里北堤路停車場,縣市政府,24.42899818,118.3157274,特優級,交通,無障礙廁所,金門縣政府觀光處,0
9020,9020010,東門里,W010000084,浯江溪停車場3號親子廁所,金門縣金城鎮東門里北堤路停車場,縣市政府,24.42957066,118.3212155,特優級,交通,親子廁所,金門縣政府觀光處,0
9020,9020020,汶沙里,W020000044,金沙清潔隊部無障礙廁所,金門縣金沙鎮汶沙里英坑60之1號,縣市政府,24.49948985,118.4206168,特優級,民眾洽公場所,無障礙廁所,金沙鎮公所,0
9020,9020020,汶沙里,W020000043,金沙清潔隊部女廁,金門縣金沙鎮汶沙里英坑60之1號,縣市政府,24.49948985,118.4206168,特優級,民眾洽公場所,女廁所,金沙鎮公所,0
9020,9020020,汶沙里,W020000042,金沙清潔隊部男廁,金門縣金沙鎮汶沙里英坑60之1號,縣市政府,24.49948985,118.4206168,特優級,民眾洽公場所,男廁所,金沙鎮公所,0
9020,9020010,西門里,W010000085,金城民防坑道出口處女廁,金門縣金城鎮西門里金門高中旁,縣市政府,24.4370361,118.3122324,特優級,觀光地區及風景區,女廁所,金門縣政府觀光處,0
9020,9020040,榜林村,W040000048,金酒公司福利大樓無障礙廁所,金門縣金寧鄉榜林村桃園路1號,縣市政府,24.43210466,118.3425892,特優級,商業營業場所,無障礙廁所,金酒公司職工福利委員會,0
9020,9020040,榜林村,W040000047,金酒公司福利大樓女廁,金門縣金寧鄉榜林村桃園路1號,縣市政府,24.43210466,118.3425892,特優級,商業營業場所,女廁所,金酒公司職工福利委員會,0
9020,9020040,榜林村,W040000046,金酒公司福利大樓男廁,金門縣金寧鄉榜林村桃園路1號,縣市政府,24.43210466,118.3425892,特優級,商業營業場所,男廁所,金酒公司職工福利委員會,0
9020,9020040,榜林村,W040000045,后湖濱海公園無障礙廁所,金門縣金寧鄉榜林村東湖路后湖,縣市政府,24.41651456,118.3444954,特優級,公園,無障礙廁所,金門縣政府觀光處,1
9020,9020040,榜林村,W040000044,金民加油站無障礙廁所,金門縣金寧鄉榜林村伯玉路二段161號,金民股份有限公司,24.439162,118.3342518,特優級,商業營業場所,無障礙廁所,金民股份有限公司,0
9020,9020040,榜林村,W040000043,金民加油站女廁,金門縣金寧鄉榜林村伯玉路二段161號,金民股份有限公司,24.439162,118.3342518,特優級,觀光地區及風景區,女廁所,金民股份有限公司,0
9020,9020040,榜林村,W040000042,金門加油站女廁,金門縣金寧鄉榜林村伯玉路一段222號,安佳信股份有限公司,24.43598093,118.327153,特優級,商業營業場所,女廁所,安佳信股份有限公司,0
9020,9020040,盤山村,W040000041,乳山遊客中心無障礙廁所,金門縣金寧鄉盤山村桃園路190號,內政部國家公園署,24.43663,118.353389,特優級,觀光地區及風景區,無障礙廁所,金門國家公園管理處,0
9020,9020040,盤山村,W040000040,蔣經國先生紀念館後側無障礙廁所,金門縣金寧鄉盤山村桃園路,內政部國家公園署,24.43700745,118.3536868,特優級,觀光地區及風景區,無障礙廁所,金門國家公園管理處,0
9020,9020040,后盤村,W040000039,國家公園大門左側無障礙廁所,金門縣金寧鄉后盤村伯玉路二段,內政部國家公園署,24.44388635,118.3533229,特優級,觀光地區及風景區,無障礙廁所,金門國家公園管理處,0
9020,9020040,古寧村,W040000038,雙鯉濕地自然中心無障礙廁所,金門縣金寧鄉古寧村南山1之6號,內政部國家公園署,24.47646435,118.3102405,特優級,觀光地區及風景區,無障礙廁所,金門國家公園管理處,0
9020,9020040,古寧村,W040000037,雙鯉濕地自然中心女廁,金門縣金寧鄉古寧村南山1之6號,內政部國家公園署,24.47646435,118.3102405,特優級,觀光地區及風景區,女廁所,金門國家公園管理處,1
9020,9020040,古寧村,W040000036,雙鯉濕地自然中心男廁,金門縣金寧鄉古寧村南山1之6號,內政部國家公園署,24.47646435,118.3102405,特優級,觀光地區及風景區,男廁所,金門國家公園管理處,0
9020,9020040,古寧村,W040000035,和平公園無障礙廁所,金門縣金寧鄉古寧村頂林路和平公園,內政部國家公園署,24.47668406,118.3168509,特優級,觀光地區及風景區,無障礙廁所,金門國家公園管理處,0
9020,9020040,古寧村,W040000034,和平公園女廁,金門縣金寧鄉古寧村頂林路和平公園,內政部國家公園署,24.47668406,118.3168509,特優級,觀光地區及風景區,女廁所,金門國家公園管理處,0
9020,9020040,古寧村,W040000033,和平公園男廁,金門縣金寧鄉古寧村頂林路和平公園,內政部國家公園署,24.47668406,118.3168509,特優級,觀光地區及風景區,男廁所,金門國家公園管理處,0
9020,9020020,西園里,W020000035,文化園區C棟B1男廁,金門縣金沙鎮西園里文化路450巷52號,縣市政府,24.49931484,118.4035868,特優級,文化育樂活動場所,男廁所,金門縣文化園區管理所,0
9020,9020020,西園里,W020000034,文化園區C棟1F後方無障礙廁所,金門縣金沙鎮西園里文化路450巷52號,縣市政府,24.49931484,118.4035868,特優級,文化育樂活動場所,無障礙廁所,金門縣文化園區管理所,0
9020,9020020,西園里,W020000033,文化園區C棟1F後方女廁,金門縣金沙鎮西園里文化路450巷52號,縣市政府,24.49931484,118.4035868,特優級,文化育樂活動場所,女廁所,金門縣文化園區管理所,0
9020,9020020,西園里,W020000032,文化園區C棟1F後方男廁,金門縣金沙鎮西園里文化路450巷52號,縣市政府,24.49931484,118.4035868,特優級,文化育樂活動場所,男廁所,金門縣文化園區管理所,0
9020,9020020,三山里,W020000055,楓香林無障礙廁所,金門縣金沙鎮三山里陽沙路旁楓香林,內政部國家公園署,24.49292225,118.4447811,特優級,觀光地區及風景區,無障礙廁所,金門國家公園管理處,0
9020,9020020,三山里,W020000054,楓香林女廁,金門縣金沙鎮三山里陽沙路旁楓香林,內政部國家公園署,24.49292225,118.4447811,特優級,觀光地區及風景區,女廁所,金門國家公園管理處,1
9020,9020020,三山里,W020000053,獅山砲陣地無障礙廁所,金門縣金沙鎮三山里陽沙路376號,縣市政府,24.50389471,118.4369726,特優級,觀光地區及風景區,無障礙廁所,金門縣政府觀光處,0
9020,9020020,三山里,W020000052,獅山砲陣地女廁,金門縣金沙鎮三山里陽沙路376號,縣市政府,24.50389471,118.4369726,特優級,觀光地區及風景區,女廁所,金門縣政府觀光處,1
9020,9020020,三山里,W020000051,獅山砲陣地男廁,金門縣金沙鎮三山里陽沙路376號,縣市政府,24.50389471,118.4369726,特優級,觀光地區及風景區,男廁所,金門縣政府觀光處,0
9020,9020020,三山里,W020000050,五虎山無障礙廁所,金門縣金沙鎮三山里山西五虎山,內政部國家公園署,24.49972997,118.4344789,特優級,觀光地區及風景區,無障礙廁所,金門國家公園管理處,0
9020,9020020,三山里,W020000049,五虎山女廁,金門縣金沙鎮三山里山西五虎山,內政部國家公園署,24.49972997,118.4344789,特優級,觀光地區及風景區,女廁所,金門國家公園管理處,1
9020,9020020,三山里,W020000048,五虎山男廁,金門縣金沙鎮三山里山西五虎山,內政部國家公園署,24.49972997,118.4344789,特優級,觀光地區及風景區,男廁所,金門國家公園管理處,0
9020,9020030,新湖里,W030000079,82據點無障礙廁所,金門縣金湖鎮新湖里82據點,縣市政府,24.42491923,118.42757,特優級,觀光地區及風景區,無障礙廁所,金湖鎮公所,1
9020,9020030,新湖里,W030000078,82據點女廁,金門縣金湖鎮新湖里82據點,縣市政府,24.42491923,118.42757,特優級,觀光地區及風景區,女廁所,金湖鎮公所,0
9020,9020030,新市里,W030000047,新市里菜市場無障礙廁所,金門縣金湖鎮新市里武德新莊,縣市政府,24.44171614,118.412988,特優級,商業營業場所,無障礙廁所,金湖鎮公所,1
9020,9020030,新市里,W030000046,新市里菜市場女廁,金門縣金湖鎮新市里武德新莊,縣市政府,24.44171614,118.412988,特優級,商業營業場所,女廁所,金湖鎮公所,0
9020,9020050,林湖村,W050000047,四維坑道男廁,金門縣烈嶼鄉林湖村四維坑道,內政部國家公園署,24.42418074,118.2623965,特優級,觀光地區及風景區,男廁所,金門國家公園管理處,0
9020,9020050,西口村,W050000046,湖井頭戰史館無障礙廁所,金門縣烈嶼鄉西口村湖井頭,縣市政府,24.44660195,118.231651,特優級,觀光地區及風景區,無障礙廁所,烈嶼鄉公所,0
9020,9020050,上林村,W050000045,上林將軍廟女廁,金門縣烈嶼鄉上林村上林,內政部國家公園署,24.42854724,118.2284576,特優級,觀光地區及風景區,女廁所,金門國家公園管理處,0
9020,9020010,古城里,W010000075,翟山坑道女廁,金門縣金城鎮古城里翟山坑道入口處,內政部國家公園署,24.39067026,118.3206772,特優級,觀光地區及風景區,女廁所,金門國家公園管理處,0
9020,9020010,古城里,W010000074,翟山坑道男廁,金門縣金城鎮古城里翟山坑道入口處,內政部國家公園署,24.39067026,118.3206772,特優級,觀光地區及風景區,男廁所,金門國家公園管理處,0
9020,9020010,西門里,W010000112,金門縣政府1號無障礙廁所,金門縣金城鎮西門里民生路60號,縣市政府,24.43708405,118.3196844,特優級,民眾洽公場所,無障礙廁所,金門縣政府綜合發展處,0
9020,9020030,正義里,W030000132,環保公園1號無障礙廁所,金門縣金湖鎮正義里環保公園,縣市政府,24.43828065,118.3688349,特優級,公園,無障礙廁所,金門縣環境保護局,0
9020,9020010,南門里,W010000016,同安渡頭女廁,金門縣金城鎮南門里同安渡頭,縣市政府,24.43726432,118.309719,特優級,觀光地區及風景區,女廁所,金門縣政府觀光處,0
9020,9020040,古寧村,W040000009,慈湖三角堡公廁,金門縣金寧鄉古寧村慈湖路三段,內政部國家公園署,24.4652436,118.2974119,特優級,觀光地區及風景區,混合廁所,金門國家公園管理處,0
9020,9020040,古寧村,W040000005,古寧頭戰史館無障礙廁所,金門縣金寧鄉古寧村北山,內政部國家公園署,24.4832303,118.3209261,特優級,觀光地區及風景區,無障礙廁所,金門國家公園管理處,0
9020,9020010,南門里,W010000015,同安渡頭男廁,金門縣金城鎮南門里同安渡頭,縣市政府,24.43726432,118.309719,特優級,觀光地區及風景區,男廁所,金門縣政府觀光處,0
9020,9020030,溪湖里,W030000040,休閒農場男廁,金門縣金湖鎮溪湖里后壟,縣市政府,24.44667738,118.4471109,特優級,觀光地區及風景區,男廁所,金門縣農業試驗所,0
9020,9020010,賢庵里,W010000042,延平郡王祠男廁,金門縣金城鎮賢庵里夏墅西北方,縣市政府,24.42442456,118.3049784,特優級,宗教禮儀場所,男廁所,金門縣養護工程所,0
9020,9020030,正義里,W030000063,金門航空站大廳2號無障礙廁所,金門縣金湖鎮正義里尚義機場,交通部民用航空局,24.43541676,118.3679274,特優級,交通,無障礙廁所,交通部民用航空局金門航空站,1
9020,9020030,正義里,W030000062,金門航空站大廳2號女廁,金門縣金湖鎮正義里尚義機場,交通部民用航空局,24.43541676,118.3679274,特優級,交通,女廁所,交通部民用航空局金門航空站,1
9020,9020030,新市里,W030000102,金湖鎮立圖書館2F男廁,金門縣金湖鎮新市里林森路6-2號,縣市政府,24.44204055,118.4166908,特優級,文化育樂活動場所,男廁所,金湖鎮公所,0
9020,9020030,新市里,W030000101,金湖鎮立圖書館1F無障礙廁所,金門縣金湖鎮新市里林森路6-2號,縣市政府,24.44204055,118.4166908,特優級,文化育樂活動場所,無障礙廁所,金湖鎮公所,0
9020,9020030,新市里,W030000100,金湖鎮立圖書館1F女廁,金門縣金湖鎮新市里林森路6-2號,縣市政府,24.44204055,118.4166908,特優級,文化育樂活動場所,女廁所,金湖鎮公所,0
9020,9020030,料羅里,W030000099,料羅海濱公園女廁,金門縣金湖鎮料羅里金港路,縣市政府,24.41632812,118.4341494,特優級,公園,女廁所,金湖鎮公所,0
9020,9020030,料羅里,W030000098,料羅海濱公園男廁,金門縣金湖鎮料羅里金港路,縣市政府,24.41632812,118.4341494,特優級,公園,男廁所,金湖鎮公所,0
9020,9020050,上林村,W050000044,烈嶼鄉圖書館2F女廁,金門縣烈嶼鄉上林村后井40號,縣市政府,24.4289141,118.2427387,特優級,文化育樂活動場所,女廁所,烈嶼鄉公所,0
9020,9020050,上林村,W050000043,烈嶼鄉圖書館2F男廁,金門縣烈嶼鄉上林村后井40號,縣市政府,24.4289141,118.2427387,特優級,文化育樂活動場所,男廁所,烈嶼鄉公所,0
9020,9020050,上林村,W050000042,烈嶼鄉圖書館1F無障礙廁所,金門縣烈嶼鄉上林村后井40號,縣市政府,24.4289141,118.2427387,特優級,文化育樂活動場所,無障礙廁所,烈嶼鄉公所,0
9020,9020050,上林村,W050000041,烈嶼鄉圖書館1F女廁,金門縣烈嶼鄉上林村后井40號,縣市政府,24.4289141,118.2427387,特優級,文化育樂活動場所,女廁所,烈嶼鄉公所,0
9020,9020040,盤山村,W040000029,乳山遊客中心女廁,金門縣金寧鄉盤山村桃園路,內政部國家公園署,24.43674428,118.3533848,特優級,觀光地區及風景區,女廁所,金門國家公園管理處,1
9020,9020010,南門里,W010000049,莒光樓2號男廁,金門縣金城鎮南門里賢城路,縣市政府,24.42541652,118.319223,特優級,觀光地區及風景區,男廁所,金門縣政府觀光處,0
9020,9020010,南門里,W010000044,莒光湖公園男廁,金門縣金城鎮南門里莒光湖公園,縣市政府,24.42665483,118.3180437,特優級,公園,男廁所,金門縣養護工程所,1
9020,9020010,賢庵里,W010000066,延平郡王祠無障礙廁所,金門縣金城鎮賢庵里夏墅西北方,縣市政府,24.42442456,118.3049784,特優級,宗教禮儀場所,無障礙廁所,金門縣養護工程所,0
9020,9020010,南門里,W010000047,雄獅堡女廁,金門縣金城鎮南門里民權路30巷旁,縣市政府,24.4315112,118.3101098,特優級,觀光地區及風景區,女廁所,金門縣養護工程所,0
9020,9020050,林湖村,W050000018,烈嶼車站男廁,金門縣烈嶼鄉林湖村九井路,縣市政府,24.42686622,118.25711,特優級,交通,男廁所,金門縣公共車船管理處,0
9020,9020010,北門里,W010000055,金城車站無障礙廁所,金門縣金城鎮北門里民生路,縣市政府,24.43328613,118.3199992,特優級,交通,無障礙廁所,金門縣公共車船管理處,1
9020,9020010,北門里,W010000054,金城車站女廁,金門縣金城鎮北門里民生路,縣市政府,24.43328613,118.3199992,特優級,交通,女廁所,金門縣公共車船管理處,0
9020,9020020,汶沙里,W020000017,沙美車站無障礙廁所,金門縣金沙鎮汶沙里環島東路一段,縣市政府,24.48903257,118.4133272,特優級,交通,無障礙廁所,金沙鎮公所,0
9020,9020020,汶沙里,W020000016,沙美車站女廁,金門縣金沙鎮汶沙里環島東路一段,縣市政府,24.48908789,118.4132262,特優級,交通,女廁所,金沙鎮公所,0
9020,9020050,上岐村,W050000016,沙溪堡女廁,金門縣烈嶼鄉上岐村濱海大道,縣市政府,24.41156487,118.2129978,特優級,觀光地區及風景區,女廁所,烈嶼鄉公所,0
9020,9020050,上岐村,W050000015,沙溪堡男廁,金門縣烈嶼鄉上岐村濱海大道,縣市政府,24.41156487,118.2129978,特優級,觀光地區及風景區,男廁所,烈嶼鄉公所,0
9020,9020030,新湖里,W030000089,市港重劃區公園無障礙廁所,金門縣金湖鎮新湖里市港五路,縣市政府,24.43958745,118.4117003,特優級,公園,無障礙廁所,金湖鎮公所,0
9020,9020010,南門里,W010000051,莒光樓2號無障礙廁所,金門縣金城鎮南門里賢城路1號,縣市政府,24.42541652,118.319223,特優級,觀光地區及風景區,無障礙廁所,金門縣政府觀光處,0
9020,9020010,南門里,W010000050,莒光樓2號女廁,金門縣金城鎮南門里賢城路1號,縣市政府,24.42541652,118.319223,特優級,觀光地區及風景區,女廁所,金門縣政府觀光處,0
9020,9020010,南門里,W010000053,莒光湖公園無障礙廁所,金門縣金城鎮南門里莒光湖公園,縣市政府,24.42665483,118.3180437,特優級,公園,無障礙廁所,金門縣養護工程所,0
9020,9020010,南門里,W010000052,莒光湖公園女廁,金門縣金城鎮南門里莒光湖公園,縣市政府,24.42665483,118.3180437,特優級,公園,女廁所,金門縣養護工程所,1
9020,9020030,山外里,W030000052,太武山2號男廁,金門縣金湖鎮山外里太武山上,內政部國家公園署,24.46270235,118.4171796,特優級,觀光地區及風景區,男廁所,金門國家公園管理處,0
9020,9020030,山外里,W030000056,金湖鎮公有零售市場男廁,金門縣金湖鎮山外里黃海路90之5號,縣市政府,24.44171614,118.412988,特優級,商業營業場所,男廁所,金湖鎮公所,0
9020,9020030,山外里,W030000051,山外車站無障礙廁所,金門縣金湖鎮山外里黃海路90之1號旁,縣市政府,24.4420942,118.4136529,特優級,交通,無障礙廁所,金門縣公共車船管理處,1
9020,9020030,山外里,W030000050,山外車站女廁,金門縣金湖鎮山外里黃海路90之1號旁,縣市政府,24.4420942,118.4136529,特優級,交通,女廁所,金門縣公共車船管理處,0
9020,9020030,山外里,W030000049,山外車站男廁,金門縣金湖鎮山外里黃海路90之1號旁,縣市政府,24.4420942,118.4136529,特優級,交通,男廁所,金門縣公共車船管理處,0
9020,9020050,林湖村,W050000022,烈嶼鄉文化館無障礙廁所,金門縣烈嶼鄉林湖村西路1之1號,縣市政府,24.4311633,118.2448416,特優級,文化育樂活動場所,無障礙廁所,烈嶼鄉公所,0
9020,9020050,林湖村,W050000019,烈嶼車站女廁,金門縣烈嶼鄉林湖村九井路,縣市政府,24.42686622,118.25711,特優級,交通,女廁所,金門縣公共車船管理處,0
9020,9020030,正義里,W030000076,環保公園低碳教育館男廁,金門縣金湖鎮正義里環保公園低碳教育館,縣市政府,24.43766543,118.3696276,特優級,文化育樂活動場所,男廁所,金門縣環境保護局,0
9020,9020030,正義里,W030000075,金門縣環境保護局無障礙廁所,金門縣金湖鎮正義里尚義,縣市政府,24.44031379,118.3695794,特優級,民眾洽公場所,無障礙廁所,金門縣環境保護局,1
9020,9020050,林湖村,W050000023,東林海濱公園男廁,金門縣烈嶼鄉林湖村南環道,縣市政府,24.42494864,118.2509515,特優級,公園,男廁所,烈嶼鄉公所,0
9020,9020050,西口村,W050000017,湖井頭戰史館女廁,金門縣烈嶼鄉西口村湖井頭,縣市政府,24.44660195,118.231651,特優級,觀光地區及風景區,女廁所,烈嶼鄉公所,0
9020,9020050,林湖村,W050000021,烈嶼鄉文化館女廁,金門縣烈嶼鄉林湖村西路,縣市政府,24.4311633,118.2448416,特優級,觀光地區及風景區,女廁所,烈嶼鄉公所,0
9020,9020050,林湖村,W050000020,烈嶼鄉文化館男廁,金門縣烈嶼鄉林湖村西路,縣市政府,24.4311633,118.2448416,特優級,觀光地區及風景區,男廁所,烈嶼鄉公所,0
9020,9020030,正義里,W030000074,金門縣環境保護局女廁,金門縣金湖鎮正義里尚義,縣市政府,24.44031379,118.3695794,特優級,民眾洽公場所,女廁所,金門縣環境保護局,0
9020,9020030,正義里,W030000073,金門航空站候機室3號女廁,金門縣金湖鎮正義里尚義機場,交通部民用航空局,24.43541676,118.3679274,特優級,交通,女廁所,交通部民用航空局金門航空站,0
9020,9020030,正義里,W030000072,金門航空站候機室3號男廁,金門縣金湖鎮正義里尚義機場,交通部民用航空局,24.43541676,118.3679274,特優級,交通,男廁所,交通部民用航空局金門航空站,0
9020,9020030,正義里,W030000071,金門航空站入境處3號無障礙廁所,金門縣金湖鎮正義里尚義機場,交通部民用航空局,24.43541676,118.3679274,特優級,交通,無障礙廁所,交通部民用航空局金門航空站,0
9020,9020030,正義里,W030000070,金門航空站入境處3號女廁,金門縣金湖鎮正義里尚義機場,交通部民用航空局,24.43541676,118.3679274,特優級,交通,女廁所,交通部民用航空局金門航空站,1
9020,9020030,正義里,W030000069,金門航空站入境處3號男廁,金門縣金湖鎮正義里尚義機場,交通部,24.43541676,118.3679274,特優級,交通,男廁所,交通部民用航空局金門航空站,1
9020,9020030,山外里,W030000055,榕園女廁,金門縣金湖鎮山外里安民1之7號,縣市政府,24.44367799,118.4301271,特優級,觀光地區及風景區,女廁所,金門縣林務所,0
9020,9020030,山外里,W030000054,太武山2號無障礙廁所,金門縣金湖鎮山外里太武山上,內政部國家公園署,24.46270235,118.4171796,特優級,觀光地區及風景區,無障礙廁所,金門國家公園管理處,1
9020,9020030,新湖里,W030000094,金門陶瓷廠無障礙廁所,金門縣金湖鎮新湖里漁村,縣市政府,24.43536602,118.4065972,特優級,觀光地區及風景區,無障礙廁所,金門縣陶瓷廠,0
9020,9020020,西園里,W020000029,文化園區C棟博物館男廁,金門縣金沙鎮西園里文化路,縣市政府,24.49931484,118.4035868,特優級,文化育樂活動場所,男廁所,金門縣文化園區管理所,0
9020,9020020,西園里,W020000028,文化園區A棟2F無障礙廁所,金門縣金沙鎮西園里文化路,縣市政府,24.49931484,118.4035868,特優級,文化育樂活動場所,無障礙廁所,金門縣文化園區管理所,0
9020,9020020,西園里,W020000027,文化園區A棟2F女廁,金門縣金沙鎮西園里文化路,縣市政府,24.49931484,118.4035868,特優級,文化育樂活動場所,女廁所,金門縣文化園區管理所,0
9020,9020020,西園里,W020000026,文化園區A棟2F男廁,金門縣金沙鎮西園里文化路,縣市政府,24.49931484,118.4035868,特優級,文化育樂活動場所,男廁所,金門縣文化園區管理所,0
9020,9020020,西園里,W020000025,文化園區A棟1F無障礙廁所,金門縣金沙鎮西園里文化路,縣市政府,24.49931484,118.4035868,特優級,文化育樂活動場所,無障礙廁所,金門縣文化園區管理所,0
9020,9020020,西園里,W020000024,文化園區A棟1F女廁,金門縣金沙鎮西園里文化路,縣市政府,24.49931484,118.4035868,特優級,文化育樂活動場所,女廁所,金門縣文化園區管理所,0
9020,9020020,大洋里,W020000021,森林公園無障礙廁所,金門縣金沙鎮大洋里林務所停車場,縣市政府,24.45885521,118.4424607,特優級,公園,無障礙廁所,金門縣林務所,1
9020,9020020,大洋里,W020000020,森林公園女廁,金門縣金沙鎮大洋里林務所停車場,縣市政府,24.45885521,118.4424607,特優級,公園,女廁所,金門縣林務所,0
9020,9020030,新市里,W030000006,新市里菜市場男廁,金門縣金湖鎮新市里新市里菜市場停車場旁,縣市政府,24.44171614,118.412988,特優級,商業營業場所,男廁所,金湖鎮公所,0
9020,9020050,林湖村,W050000027,烈嶼鄉公所1F男廁,金門縣烈嶼鄉林湖村西路,縣市政府,24.42947547,118.2443952,特優級,民眾洽公場所,男廁所,烈嶼鄉公所,0
9020,9020030,正義里,W030000068,金門航空站入境處2號女廁,金門縣金湖鎮正義里尚義機場,交通部民用航空局,24.43541676,118.3679274,特優級,交通,女廁所,交通部民用航空局金門航空站,1
9020,9020030,正義里,W030000067,金門航空站入境處2號男廁,金門縣金湖鎮正義里尚義機場,交通部民用航空局,24.43541676,118.3679274,特優級,交通,男廁所,交通部民用航空局金門航空站,1
9020,9020030,正義里,W030000066,金門航空站入境處1號無障礙廁所,金門縣金湖鎮正義里尚義機場,交通部民用航空局,24.43541676,118.3679274,特優級,交通,無障礙廁所,交通部民用航空局金門航空站,0
9020,9020030,正義里,W030000065,金門航空站入境處1號女廁,金門縣金湖鎮正義里尚義機場,交通部民用航空局,24.43541676,118.3679274,特優級,交通,女廁所,交通部民用航空局金門航空站,0
9020,9020030,瓊林里,W030000032,特約茶室展示館女廁,金門縣金湖鎮瓊林里小徑,內政部國家公園署,24.44848155,118.3849279,特優級,觀光地區及風景區,男廁所,金門國家公園管理處,1
9020,9020020,汶沙里,W020000058,沙美加油站無障礙廁所,金門縣金沙鎮汶沙里環島北路四段569號,旺達鴻股份有限公司,24.49056653,118.4101892,特優級,商業營業場所,無障礙廁所,旺達鴻股份有限公司,0
9020,9020020,汶沙里,W020000057,沙美加油站女廁,金門縣金沙鎮汶沙里環島北路四段569號,旺達鴻股份有限公司,24.49056653,118.4101892,特優級,商業營業場所,女廁所,旺達鴻股份有限公司,0
9020,9020020,官嶼里,W020000056,馬山觀測站女廁,金門縣金沙鎮官嶼里馬山觀測站,內政部國家公園署,24.52777592,118.4088806,特優級,觀光地區及風景區,女廁所,金門國家公園管理處,1
9020,9020020,浦山里,W020000047,呂厝村落周邊無障礙廁所,金門縣金沙鎮浦山里呂厝鶯山廟旁,縣市政府,24.4854943,118.3888434,特優級,觀光地區及風景區,無障礙廁所,金沙鎮公所,0
9020,9020020,浦山里,W020000046,呂厝村落周邊女廁,金門縣金沙鎮浦山里呂厝鶯山廟旁,縣市政府,24.4854943,118.3888434,特優級,觀光地區及風景區,女廁所,金沙鎮公所,0
9020,9020020,浦山里,W020000045,呂厝村落周邊男廁,金門縣金沙鎮浦山里呂厝鶯山廟旁,縣市政府,24.4854943,118.3888434,特優級,觀光地區及風景區,男廁所,金沙鎮公所,0
9020,9020030,正義里,W030000018,成功海灘男廁,金門縣金湖鎮正義里成功海灘,縣市政府,24.43590492,118.3870089,特優級,公園,男廁所,金湖鎮公所,0
9020,9020030,新湖里,W030000027,82據點男廁,金門縣金湖鎮新湖里82據點,縣市政府,24.42491923,118.42757,特優級,觀光地區及風景區,男廁所,金湖鎮公所,0
9020,9020010,金水里,W010000039,水頭商港1號無障礙廁所,金門縣金城鎮金水里西海路一段,縣市政府,24.415424,118.287007,特優級,交通,無障礙廁所,金門縣港務處,0
9020,9020010,金水里,W010000038,水頭商港1號女廁,金門縣金城鎮金水里西海路一段,縣市政府,24.41529509,118.2866266,特優級,交通,女廁所,金門縣港務處,0
9020,9020010,金水里,W010000037,水頭商港1號男廁,金門縣金城鎮金水里西海路一段,縣市政府,24.41529509,118.2866266,特優級,交通,男廁所,金門縣港務處,0
9020,9020010,金水里,W010000065,茅山塔女廁,金門縣金城鎮金水里茅山塔停車場,縣市政府,24.40948981,118.298069,特優級,觀光地區及風景區,女廁所,金門縣林務所,0
9020,9020010,賢庵里,W010000067,牧馬侯祠男廁,金門縣金城鎮賢庵里牧馬侯祠對面,縣市政府,24.42022348,118.3224461,特優級,宗教禮儀場所,男廁所,金城鎮公所,0
9020,9020020,汶沙里,W020000060,金沙清潔隊部性別友善廁所,金門縣金沙鎮汶沙里英坑60之1號,縣市政府,24.49948985,118.4206168,特優級,民眾洽公場所,性別友善廁所,金沙鎮公所,0
9020,9020020,汶沙里,W020000059,金沙清潔隊部親子廁,金門縣金沙鎮汶沙里英坑60之1號,縣市政府,24.49948985,118.4206168,特優級,民眾洽公場所,親子廁所,金沙鎮公所,1
9020,9020010,南門里,W010000073,金門縣立體育場親子廁所,金門縣金城鎮南門里民族路261號,縣市政府,24.42994042,118.3124865,特優級,文化育樂活動場所,親子廁所,金門縣立體育場,0
9020,9020030,新市里,W030000107,金湖鎮立圖書館3F無障礙廁所,金門縣金湖鎮新市里林森路6-2號,縣市政府,24.44204055,118.4166908,特優級,文化育樂活動場所,無障礙廁所,金湖鎮公所,0
9020,9020030,新市里,W030000106,金湖鎮立圖書館3F女廁,金門縣金湖鎮新市里林森路6-2號,縣市政府,24.44204055,118.4166908,特優級,文化育樂活動場所,女廁所,金湖鎮公所,0
9020,9020030,新市里,W030000105,金湖鎮立圖書館3F男廁,金門縣金湖鎮新市里林森路6-2號,縣市政府,24.44204055,118.4166908,特優級,文化育樂活動場所,男廁所,金湖鎮公所,0
9020,9020030,新市里,W030000104,金湖鎮立圖書館2F無障礙廁所,金門縣金湖鎮新市里林森路6-2號,縣市政府,24.44204055,118.4166908,特優級,文化育樂活動場所,無障礙廁所,金湖鎮公所,0
9020,9020030,新市里,W030000103,金湖鎮立圖書館2F女廁,金門縣金湖鎮新市里林森路6-2號,縣市政府,24.44204055,118.4166908,特優級,文化育樂活動場所,女廁所,金湖鎮公所,0
9020,9020050,上林村,W050000040,烈嶼鄉圖書館1F男廁,金門縣烈嶼鄉上林村后井40號,縣市政府,24.4289141,118.2427387,特優級,文化育樂活動場所,男廁所,烈嶼鄉公所,0
9020,9020050,林湖村,W050000039,東林海濱公園無障礙廁所,金門縣烈嶼鄉林湖村南環道,縣市政府,24.42494864,118.2509515,特優級,公園,無障礙廁所,烈嶼鄉公所,0
9020,9020030,料羅里,W030000081,料羅碼頭1號無障礙廁所,金門縣金湖鎮料羅里料羅碼頭,縣市政府,24.40796102,118.4276793,特優級,交通,無障礙廁所,金門縣港務處,1
9020,9020030,料羅里,W030000080,料羅碼頭1號女廁,金門縣金湖鎮料羅里料羅碼頭,縣市政府,24.40796102,118.4276793,特優級,交通,女廁所,金門縣港務處,0
9020,9020050,林湖村,W050000026,九宮碼頭2號無障礙廁所,金門縣烈嶼鄉林湖村九宮碼頭,縣市政府,24.42546095,118.2631154,特優級,交通,無障礙廁所,金門縣港務處,1
9020,9020050,林湖村,W050000025,九宮碼頭2號女廁,金門縣烈嶼鄉林湖村九宮碼頭,縣市政府,24.42546095,118.2631154,特優級,交通,女廁所,金門縣港務處,0
9020,9020050,林湖村,W050000024,九宮碼頭2號男廁,金門縣烈嶼鄉林湖村九宮碼頭,縣市政府,24.42546095,118.2631154,特優級,交通,男廁所,金門縣港務處,0
9020,9020040,榜林村,W040000015,金酒公司行政大樓男廁,金門縣金寧鄉榜林村桃園路,縣市政府,24.43228986,118.3431711,特優級,商業營業場所,男廁所,金門酒廠實業股份有限公司,0
9020,9020040,榜林村,W040000015,金酒公司行政大樓男廁,金門縣金寧鄉榜林村桃園路,縣市政府,24.43228986,118.3431711,特優級,商業營業場所,男廁所,金門酒廠實業股份有限公司,0
9020,9020040,榜林村,W040000013,金民加油站男廁,金門縣金寧鄉榜林村伯玉路二段,金民股份有限公司,24.439162,118.3342518,特優級,商業營業場所,男廁所,金民股份有限公司,0
9020,9020040,榜林村,W040000014,后湖濱海公園男廁,金門縣金寧鄉榜林村東湖路后湖,縣市政府,24.41651456,118.3444954,特優級,公園,男廁所,金門縣政府觀光處,0
9020,9020040,榜林村,W040000012,金門加油站男廁,金門縣金寧鄉榜林村伯玉路一段,安佳信股份有限公司,24.43598093,118.327153,特優級,商業營業場所,男廁所,安佳信股份有限公司,0
9020,9020040,古寧村,W040000003,古寧頭戰史館男廁,金門縣金寧鄉古寧村北山,內政部國家公園署,24.4832303,118.3209261,特優級,觀光地區及風景區,男廁所,金門國家公園管理處,0
9020,9020040,古寧村,W040000004,古寧頭戰史館女廁,金門縣金寧鄉古寧村北山,內政部國家公園署,24.4832303,118.3209261,特優級,觀光地區及風景區,女廁所,金門國家公園管理處,0
9020,9020030,瓊林里,W030000035,社福館1F女廁,金門縣金湖鎮瓊林里瓊徑路,縣市政府,24.45252838,118.3811618,特優級,社福機構、集會場所,女廁所,金門縣社會福利館,0
9020,9020040,盤山村,W040000002,蔣經國先生紀念館後側男廁,金門縣金寧鄉盤山村桃園路,內政部國家公園署,24.43700745,118.3536868,特優級,觀光地區及風景區,男廁所,金門國家公園管理處,1
9020,9020030,瓊林里,W030000036,社福館1F無障礙廁所,金門縣金湖鎮瓊林里瓊徑路,縣市政府,24.45252838,118.3811618,特優級,社福機構、集會場所,無障礙廁所,金門縣社會福利館,0
9020,9020030,瓊林里,W030000037,社福館演藝廳旁男廁,金門縣金湖鎮瓊林里瓊徑路35號,縣市政府,24.45252838,118.3811618,特優級,社福機構、集會場所,男廁所,金門縣社會福利館,0
9020,9020030,正義里,W030000024,金門航空站大廳1號無障礙廁所,金門縣金湖鎮正義里尚義機場,交通部民用航空局,24.43541676,118.3679274,特優級,交通,無障礙廁所,交通部民用航空局金門航空站,0
9020,9020030,正義里,W030000023,金門航空站大廳1號女廁,金門縣金湖鎮正義里尚義機場,交通部,24.43541676,118.3679274,特優級,交通,女廁所,交通部民用航空局金門航空站,0
9020,9020030,瓊林里,W030000113,蘭湖公園無障礙廁所,金門縣金湖鎮瓊林里蘭湖,縣市政府,24.45030712,118.3830809,特優級,觀光地區及風景區,無障礙廁所,金湖鎮公所,1
9020,9020030,瓊林里,W030000112,蘭湖公園女廁,金門縣金湖鎮瓊林里蘭湖,縣市政府,24.45030712,118.3830809,特優級,觀光地區及風景區,女廁所,金湖鎮公所,0
9020,9020030,瓊林里,W030000111,蘭湖公園男廁,金門縣金湖鎮瓊林里蘭湖,縣市政府,24.45030712,118.3830809,特優級,觀光地區及風景區,男廁所,金湖鎮公所,0
9020,9020040,古寧村,W040000032,北山海堤公廁,金門縣金寧鄉古寧村北山海堤,縣市政府,24.48526627,118.3045097,特優級,觀光地區及風景區,混合廁所,金寧鄉公所,0
9020,9020030,新湖里,W030000014,金門陶瓷廠男廁,金門縣金湖鎮新湖里漁村,縣市政府,24.43536602,118.4065972,特優級,觀光地區及風景區,男廁所,金門縣陶瓷廠,0
9020,9020030,新市里,W030000008,衛福部金門醫院女廁,金門縣金湖鎮新市里復興路,衛生福利部,24.44161491,118.4186459,特優級,社福機構、集會場所,女廁所,衛生福利部金門醫院,0
9020,9020030,正義里,W030000022,金門航空站大廳1號男廁,金門縣金湖鎮正義里尚義機場,交通部民用航空局,24.43541676,118.3679274,特優級,交通,男廁所,交通部民用航空局金門航空站,1
9020,9020010,東門里,W010000078,浯江溪停車場3號女廁,金門縣金城鎮東門里北堤路停車場,縣市政府,24.42957066,118.3212155,特優級,交通,女廁所,金門縣政府觀光處,0
9020,9020010,東門里,W010000077,浯江溪停車場2號女廁,金門縣金城鎮東門里北堤路停車場,縣市政府,24.42940294,118.3182753,特優級,交通,女廁所,金門縣政府觀光處,0
9020,9020010,南門里,W010000076,浯江溪停車場1號女廁,金門縣金城鎮南門里北堤路停車場,縣市政府,24.42899818,118.3157274,特優級,交通,女廁所,金門縣政府觀光處,0
9020,9020030,新市里,W030000004,中正公園老人休閒中心男廁,金門縣金湖鎮新市里太湖路三段,縣市政府,24.43755166,118.4237726,特優級,社福機構、集會場所,男廁所,金湖鎮公所,0
9020,9020030,新市里,W030000005,中正公園老人休閒中心女廁,金門縣金湖鎮新市里太湖路三段,縣市政府,24.43755166,118.4237726,特優級,社福機構、集會場所,女廁所,金湖鎮公所,0
9020,9020030,料羅里,W030000029,料羅碼頭2號男廁,金門縣金湖鎮料羅里料羅碼頭,縣市政府,24.40806574,118.430054,特優級,交通,男廁所,金門縣港務處,0
9020,9020030,正義里,W030000019,金門航空站特產中心旁男廁,金門縣金湖鎮正義里尚義機場,交通部,24.43522385,118.3673601,特優級,交通,男廁所,交通部民用航空局金門航空站,1
9020,9020030,正義里,W030000020,金門航空站特產中心旁女廁,金門縣金湖鎮正義里尚義機場,交通部,24.43522385,118.3673601,特優級,交通,女廁所,交通部民用航空局金門航空站,1
9020,9020030,山外里,W030000012,榕園男廁,金門縣金湖鎮山外里安民,縣市政府,24.44367799,118.4301271,特優級,觀光地區及風景區,男廁所,金門縣林務所,0
9020,9020010,南門里,W010000022,浯江溪停車場1號男廁,金門縣金城鎮南門里北堤路停車場,縣市政府,24.42899818,118.3157274,特優級,交通,男廁所,金門縣政府觀光處,0
9020,9020010,南門里,W010000019,體育館-民族路側女廁,金門縣金城鎮南門里民族路,縣市政府,24.42998984,118.3143463,特優級,文化育樂活動場所,女廁所,金門縣立體育場,0
9020,9020010,南門里,W010000018,體育館-民族路側男廁,金門縣金城鎮南門里民族路,縣市政府,24.42998984,118.3143463,特優級,文化育樂活動場所,男廁所,金門縣立體育場,0
9020,9020010,東門里,W010000005,浯江溪停車場2號男廁,金門縣金城鎮東門里浯江北堤路旁,縣市政府,24.42937497,118.3182746,特優級,民眾洽公場所,男廁所,金門縣政府觀光處,0
9020,9020010,東門里,W010000006,浯江溪停車場3號男廁,金門縣金城鎮東門里北堤路停車場,縣市政府,24.42957066,118.3212155,特優級,交通,男廁所,金門縣政府觀光處,0
9020,9020010,西門里,W010000008,統精加油站男廁,金門縣金城鎮西門里環島北路一段,統精股份有限公司,24.44337403,118.3258793,特優級,商業營業場所,男廁所,統精股份有限公司,0
9020,9020010,西門里,W010000014,文化中心女廁,金門縣金城鎮西門里環島北路一段,縣市政府,24.44085028,118.323409,特優級,文化育樂活動場所,女廁所,金門縣文化局,0
9020,9020010,古城里,W010000030,古崗樓女廁,金門縣金城鎮古城里珠水路旁,國家公園署,24.39581014,118.3152648,特優級,觀光地區及風景區,女廁所,金門國家公園管理處,0
9020,9020010,北門里,W010000024,金城車站男廁,金門縣金城鎮北門里民生路7號,縣市政府,24.43328613,118.3199992,特優級,交通,男廁所,金門縣公共車船管理處,0
9020,9020030,瓊林里,W030000119,特約茶室展示館無障礙廁所,金門縣金湖鎮瓊林里小徑126號,內政部國家公園署,24.44848155,118.3849279,特優級,觀光地區及風景區,無障礙廁所,金門國家公園管理處,0
9020,9020030,正義里,W030000118,陳景蘭洋樓女廁,金門縣金湖鎮正義里成功村1號,縣市政府,24.43736657,118.3900474,特優級,觀光地區及風景區,女廁所,金湖鎮公所,0
9020,9020030,山外里,W030000117,迎賓館無障礙廁所,金門縣金湖鎮山外里山外72之1號,內政部國家公園署,24.44788448,118.4179418,特優級,觀光地區及風景區,無障礙廁所,金門國家公園管理處,0
9020,9020030,山外里,W030000116,迎賓館女廁,金門縣金湖鎮山外里山外72之1號,內政部國家公園署,24.44788448,118.4179418,特優級,觀光地區及風景區,女廁所,金門國家公園管理處,1
9020,9020010,金水里,W010000106,水頭商港5號無障礙廁所,金門縣金城鎮金水里西海路一段5號,縣市政府,24.41529509,118.2866266,特優級,交通,無障礙廁所,金門縣港務處,0
9020,9020010,金水里,W010000105,水頭商港5號女廁,金門縣金城鎮金水里西海路一段5號,縣市政府,24.41529509,118.2866266,特優級,交通,女廁所,金門縣港務處,0
9020,9020010,金水里,W010000104,水頭商港5號男廁,金門縣金城鎮金水里西海路一段5號,縣市政府,24.41529509,118.2866266,特優級,交通,男廁所,金門縣港務處,0
9020,9020010,金水里,W010000103,水頭商港4號無障礙廁所,金門縣金城鎮金水里西海路一段5號,縣市政府,24.41529509,118.2866266,特優級,交通,無障礙廁所,金門縣港務處,0
9020,9020010,金水里,W010000102,水頭商港4號女廁,金門縣金城鎮金水里西海路一段5號,縣市政府,24.41529509,118.2866266,特優級,交通,女廁所,金門縣港務處,0
9020,9020010,金水里,W010000101,水頭商港4號男廁,金門縣金城鎮金水里西海路一段5號,縣市政府,24.41529509,118.2866266,特優級,交通,男廁所,金門縣港務處,0
9020,9020010,金水里,W010000100,水頭商港3號無障礙廁所,金門縣金城鎮金水里西海路一段5號,縣市政府,24.41529509,118.2866266,特優級,交通,無障礙廁所,金門縣港務處,0
9020,9020010,金水里,W010000099,水頭商港3號女廁,金門縣金城鎮金水里西海路一段5號,縣市政府,24.41529509,118.2866266,特優級,交通,女廁所,金門縣港務處,0
9020,9020010,金水里,W010000096,水頭商港2號女廁,金門縣金城鎮金水里西海路一段5號,縣市政府,24.41529509,118.2866266,特優級,交通,女廁所,金門縣港務處,0
9020,9020010,南門里,W010000093,體育館-民族路側無障礙廁所,金門縣金城鎮南門里民族路,縣市政府,24.42998984,118.3143463,特優級,文化育樂活動場所,無障礙廁所,金門縣立體育場,0
9020,9020010,西門里,W010000092,統精加油站女廁,金門縣金城鎮西門里環島北路一段138號,統精股份有限公司,24.44337403,118.3258793,特優級,商業營業場所,女廁所,統精股份有限公司,0
9020,9020010,金水里,W010000091,風獅爺文物坊女廁,金門縣金城鎮金水里前水頭42號,內政部國家公園署,24.40950578,118.2986691,特優級,觀光地區及風景區,女廁所,金門國家公園管理處,0
9020,9020010,南門里,W010000072,慢速壘球場無障礙廁所,金門縣金城鎮南門里慢速壘球場旁,縣市政府,24.43123584,118.3108064,特優級,文化育樂活動場所,無障礙廁所,金門縣立體育場,0
9020,9020010,南門里,W010000071,慢速壘球場女廁,金門縣金城鎮南門里慢速壘球場旁,縣市政府,24.43123584,118.3108064,特優級,文化育樂活動場所,女廁所,金門縣立體育場,0
9020,9020010,南門里,W010000070,慢速壘球場男廁,金門縣金城鎮南門里慢速壘球場旁,縣市政府,24.43123584,118.3108064,特優級,文化育樂活動場所,男廁所,金門縣立體育場,0
9020,9020010,金水里,W010000095,水頭商港2號男廁,金門縣金城鎮金水里西海路一段5號,縣市政府,24.41529509,118.2866266,特優級,交通,男廁所,金門縣港務處,0
9020,9020010,南門里,W010000094,體育場司令台下方女廁,金門縣金城鎮南門里民族路261號,縣市政府,24.43328613,118.3124059,特優級,文化育樂活動場所,女廁所,金門縣立體育場,0
9020,9020050,黃埔村,W050000037,勇士堡女廁,金門縣烈嶼鄉黃埔村黃厝勇士堡,縣市政府,24.44736695,118.2520994,特優級,觀光地區及風景區,女廁所,烈嶼鄉公所,0
9020,9020050,黃埔村,W050000036,勇士堡男廁,金門縣烈嶼鄉黃埔村黃厝勇士堡,縣市政府,24.44736695,118.2520994,特優級,觀光地區及風景區,男廁所,烈嶼鄉公所,0
9020,9020030,正義里,W030000061,金門航空站大廳2號男廁,金門縣金湖鎮正義里尚義機場,交通部民用航空局,24.43541676,118.3679274,特優級,交通,男廁所,交通部民用航空局金門航空站,1
9020,9020030,山外里,W030000053,太武山2號女廁,金門縣金湖鎮山外里太武山上,內政部國家公園署,24.46270235,118.4171796,特優級,觀光地區及風景區,女廁所,金門國家公園管理處,0
9020,9020040,后盤村,W040000028,國家公園大門左側女廁,金門縣金寧鄉后盤村伯玉路二段,內政部國家公園署,24.44388635,118.3533229,特優級,觀光地區及風景區,女廁所,金門國家公園管理處,0
9020,9020040,盤山村,W040000027,蔣經國先生紀念館後側女廁,金門縣金寧鄉盤山村桃園路196號,內政部國家公園署,24.43700745,118.3536868,特優級,觀光地區及風景區,女廁所,金門國家公園管理處,1
9020,9020010,西門里,W010000063,金門縣政府3號女廁,金門縣金城鎮西門里民生路60號,縣市政府,24.4371691,118.3191152,特優級,民眾洽公場所,女廁所,金門縣政府綜合發展處,0
9020,9020010,西門里,W010000062,金門縣政府3號男廁,金門縣金城鎮西門里民生路60號,縣市政府,24.4371691,118.3191152,特優級,民眾洽公場所,男廁所,金門縣政府綜合發展處,0
9020,9020010,西門里,W010000061,金門縣政府2號女廁,金門縣金城鎮西門里民生路60號,縣市政府,24.43724594,118.3196238,特優級,民眾洽公場所,女廁所,金門縣政府綜合發展處,0
9020,9020010,西門里,W010000060,金門縣政府2號男廁,金門縣金城鎮西門里民生路60號,縣市政府,24.43724594,118.3196238,特優級,民眾洽公場所,男廁所,金門縣政府綜合發展處,0
9020,9020010,西門里,W010000059,金門縣政府1號女廁,金門縣金城鎮西門里民生路60號,縣市政府,24.43724594,118.3196238,特優級,民眾洽公場所,女廁所,金門縣政府綜合發展處,0
9020,9020010,西門里,W010000058,金門縣政府1號男廁,金門縣金城鎮西門里民生路60號,縣市政府,24.43708405,118.3196844,特優級,民眾洽公場所,男廁所,金門縣政府綜合發展處,0
9020,9020040,榜林村,W040000030,后湖濱海公園女廁,金門縣金寧鄉榜林村東湖路后湖,縣市政府,24.41651456,118.3444954,特優級,公園,女廁所,金門縣政府觀光處,0
9020,9020040,盤山村,W040000031,金寧鄉公所女廁,金門縣金寧鄉盤山村仁愛新村1號,縣市政府,24.45087347,118.3347443,特優級,民眾洽公場所,女廁所,金寧鄉公所,0
9020,9020020,汶沙里,W020000018,汶沙里菜市場女廁,金門縣金沙鎮汶沙里汶沙里菜市場旁,縣市政府,24.48987439,118.4142937,特優級,商業營業場所,女廁所,金沙鎮公所,0
9020,9020020,汶沙里,W020000019,金沙鎮公所3F女廁,金門縣金沙鎮汶沙里環島東路一段,縣市政府,24.48904489,118.4132302,特優級,民眾洽公場所,女廁所,金沙鎮公所,0
9020,9020010,北門里,W010000057,金城鎮公所無障礙廁所,金門縣金城鎮北門里民生路2號,縣市政府,24.43275911,118.32082,特優級,民眾洽公場所,無障礙廁所,金城鎮公所,0
9020,9020010,北門里,W010000056,金城鎮公所女廁,金門縣金城鎮北門里民生路2號,縣市政府,24.43275911,118.32082,特優級,民眾洽公場所,女廁所,金城鎮公所,0
9020,9020010,賢庵里,W010000069,牧馬侯祠無障礙廁所,金門縣金城鎮賢庵里牧馬侯祠對面,縣市政府,24.42022348,118.3224461,特優級,宗教禮儀場所,無障礙廁所,金城鎮公所,0
9020,9020010,賢庵里,W010000068,牧馬侯祠女廁,金門縣金城鎮賢庵里牧馬侯祠對面,縣市政府,24.42022348,118.3224461,特優級,宗教禮儀場所,女廁所,金城鎮公所,0
9020,9020010,南門里,W010000048,雄獅堡無障礙廁所,金門縣金城鎮南門里民權路30巷旁,縣市政府,24.4315112,118.3101098,特優級,觀光地區及風景區,無障礙廁所,金門縣養護工程所,0
9020,9020010,南門里,W010000046,雄獅堡男廁,金門縣金城鎮南門里民權路30巷旁,縣市政府,24.4315112,118.3101098,特優級,觀光地區及風景區,男廁所,金門縣養護工程所,0
9020,9020030,正義里,W030000015,陳景蘭洋樓男廁,金門縣金湖鎮正義里陳景蘭洋樓,縣市政府,24.43736657,118.3900474,特優級,觀光地區及風景區,男廁所,金湖鎮公所,0
9020,9020030,新湖里,W030000088,市港重劃區公園女廁,金門縣金湖鎮新湖里市港五路,縣市政府,24.4395391,118.4116662,特優級,公園,女廁所,金湖鎮公所,0
9020,9020030,新湖里,W030000087,市港重劃區公園男廁,金門縣金湖鎮新湖里市港五路,縣市政府,24.4394873,118.4116301,特優級,公園,男廁所,金湖鎮公所,0
9020,9020030,正義里,W030000060,成功海灘無障礙廁所,金門縣金湖鎮正義里成功海灘,縣市政府,24.43595867,118.3868805,特優級,公園,無障礙廁所,金湖鎮公所,1
9020,9020030,正義里,W030000059,成功海灘女廁,金門縣金湖鎮正義里成功海灘,縣市政府,24.43595867,118.3868805,特優級,公園,女廁所,金湖鎮公所,0
9020,9020030,瓊林里,W030000083,社福館演藝廳旁無障礙廁所,金門縣金湖鎮瓊林里瓊徑路,縣市政府,24.45252838,118.3811618,特優級,社福機構、集會場所,無障礙廁所,金門縣社會福利館,0
9020,9020030,瓊林里,W030000082,社福館演藝廳旁女廁,金門縣金湖鎮瓊林里瓊徑路,縣市政府,24.45252838,118.3811618,特優級,社福機構、集會場所,女廁所,金門縣社會福利館,0
9020,9020030,正義里,W030000064,金門航空站入境處1號男廁,金門縣金湖鎮正義里尚義機場,交通部民用航空局,24.43541676,118.3679274,特優級,交通,男廁所,交通部民用航空局金門航空站,0
9020,9020030,料羅里,W030000028,料羅碼頭1號男廁,金門縣金湖鎮料羅里料羅碼頭,縣市政府,24.40796102,118.4276793,特優級,交通,男廁所,金門縣港務處,0
9020,9020030,溪湖里,W030000041,休閒農場女廁,金門縣金湖鎮溪湖里后壟,縣市政府,24.44666613,118.4471494,特優級,觀光地區及風景區,女廁所,金門縣農產試驗所,0
9020,9020030,正義里,W030000077,環保公園低碳教育館女廁,金門縣金湖鎮正義里環保公園低碳教育館,縣市政府,24.43766543,118.3696276,特優級,文化育樂活動場所,女廁所,金門縣環境保護局,0
9020,9020030,瓊林里,W030000086,社福館B1無障礙廁所,金門縣金湖鎮瓊林里瓊徑路35號,縣市政府,24.45252838,118.3811618,特優級,社福機構、集會場所,無障礙廁所,金門縣社會福利館,0
9020,9020030,瓊林里,W030000085,社福館B1女廁,金門縣金湖鎮瓊林里瓊徑路35號,縣市政府,24.45276996,118.3810152,特優級,社福機構、集會場所,女廁所,金門縣社會福利館,0
9020,9020030,瓊林里,W030000084,社福館B1男廁,金門縣金湖鎮瓊林里瓊徑路35號,縣市政府,24.45252838,118.3811618,特優級,社福機構、集會場所,男廁所,金門縣社會福利館,0
9020,9020040,古寧村,W040000026,李光前將軍廟無障礙廁所,金門縣金寧鄉古寧村西浦頭,縣市政府,24.46848019,118.3168401,特優級,宗教禮儀場所,無障礙廁所,金寧鄉公所,0
9020,9020040,古寧村,W040000025,李光前將軍廟女廁,金門縣金寧鄉古寧村西浦頭,縣市政府,24.46848019,118.3168401,特優級,宗教禮儀場所,女廁所,金寧鄉公所,0
9020,9020020,西園里,W020000023,文化園區A棟1F男廁,金門縣金沙鎮西園里文化路,縣市政府,24.49931484,118.4035868,特優級,文化育樂活動場所,男廁所,金門縣文化園區管理所,0
9020,9020050,林湖村,W050000031,烈嶼鄉公所2F女廁,金門縣烈嶼鄉林湖村西路,縣市政府,24.42947547,118.2443952,特優級,民眾洽公場所,女廁所,烈嶼鄉公所,0
9020,9020050,林湖村,W050000030,烈嶼鄉公所2F男廁,金門縣烈嶼鄉林湖村西路,縣市政府,24.42947547,118.2443952,特優級,民眾洽公場所,男廁所,烈嶼鄉公所,0
9020,9020050,林湖村,W050000029,烈嶼鄉公所1F無障礙廁所,金門縣烈嶼鄉林湖村西路,縣市政府,24.42947547,118.2443952,特優級,民眾洽公場所,無障礙廁所,烈嶼鄉公所,0
9020,9020050,林湖村,W050000028,烈嶼鄉公所1F女廁,金門縣烈嶼鄉林湖村西路,縣市政府,24.42947547,118.2443952,特優級,民眾洽公場所,女廁所,烈嶼鄉公所,0
9020,9020020,三山里,W020000008,民俗文化村女廁,金門縣金沙鎮三山里山后民俗文化村,內政部國家公園署,24.50429061,118.441019,特優級,觀光地區及風景區,女廁所,金門國家公園管理處,0
9020,9020020,三山里,W020000010,楓香林男廁,金門縣金沙鎮三山里陽沙路旁楓香林,內政部國家公園署,24.49292225,118.4447811,特優級,觀光地區及風景區,男廁所,金門國家公園管理處,0
9020,9020010,南門里,W010000023,體育場司令台下方性別友善廁所,金門縣金城鎮南門里民族路,縣市政府,24.42987842,118.3124059,特優級,文化育樂活動場所,性別友善廁所,金門縣立體育場,0
9020,9020030,料羅里,W030000093,料羅碼頭2號女廁,金門縣金湖鎮料羅里料羅碼頭,縣市政府,24.40806574,118.430054,特優級,交通,女廁所,金門縣港務處,0
9020,9020030,溪湖里,W030000092,復國墩漁港無障礙廁所,金門縣金湖鎮溪湖里復國墩漁港,縣市政府,24.44656145,118.4728673,特優級,交通,無障礙廁所,金門區漁會,0
9020,9020030,溪湖里,W030000091,復國墩漁港女廁,金門縣金湖鎮溪湖里復國墩漁港,縣市政府,24.44656145,118.4728673,特優級,交通,女廁所,金門區漁會,0
9020,9020030,溪湖里,W030000090,復國墩漁港男廁,金門縣金湖鎮溪湖里復國墩漁港,縣市政府,24.44656145,118.4728673,特優級,交通,男廁所,金門區漁會,0
9020,9020020,西園里,W020000031,文化園區C棟博物館無障礙廁所,金門縣金沙鎮西園里文化路,縣市政府,24.49931484,118.4035868,特優級,文化育樂活動場所,無障礙廁所,金門縣文化園區管理所,0
9020,9020020,西園里,W020000030,文化園區C棟博物館女廁,金門縣金沙鎮西園里文化路,縣市政府,24.49931484,118.4035868,特優級,文化育樂活動場所,女廁所,金門縣文化園區管理所,0
9020,9020010,賢庵里,W010000043,延平郡王祠女廁,金門縣金城鎮賢庵里夏墅西北方,縣市政府,24.42442456,118.3049784,特優級,宗教禮儀場所,女廁所,金門縣養護工程所,0
9020,9020030,山外里,W030000013,迎賓館男廁,金門縣金湖鎮山外里山外,內政部國家公園署,24.44788448,118.4179418,特優級,觀光地區及風景區,男廁所,金門國家公園管理處,0
9020,9020030,正義里,W030000021,金門航空站特產中心旁無障礙廁所,金門縣金湖鎮正義里尚義機場,交通部民用航空局,24.43522385,118.3673601,特優級,交通,無障礙廁所,交通部民用航空局金門航空站,0
9020,9020020,三山里,W020000009,民俗文化村無障礙廁所,金門縣金沙鎮三山里山后民俗文化村,內政部國家公園署,24.50429061,118.441019,特優級,觀光地區及風景區,無障礙廁所,金門國家公園管理處,1
9020,9020020,汶沙里,W020000002,沙美加油站男廁,金門縣金沙鎮汶沙里環島北路四段,旺達鴻股份有限公司,24.49056653,118.4101892,特優級,商業營業場所,男廁所,旺達鴻股份有限公司,0
9020,9020020,西園里,W020000041,文化園區E棟女廁,金門縣金沙鎮西園里文化路450巷52號,縣市政府,24.49931484,118.4035868,特優級,文化育樂活動場所,女廁所,金門縣文化園區管理所,0
9020,9020020,西園里,W020000040,文化園區E棟男廁,金門縣金沙鎮西園里文化路450巷52號,縣市政府,24.49931484,24.49931484,特優級,文化育樂活動場所,男廁所,金門縣文化園區管理所,0
9020,9020020,西園里,W020000039,文化園區D棟無障礙廁所,金門縣金沙鎮西園里文化路450巷52號,縣市政府,24.49931484,118.4035868,特優級,文化育樂活動場所,無障礙廁所,金門縣文化園區管理所,0
9020,9020020,西園里,W020000038,文化園區D棟女廁,金門縣金沙鎮西園里文化路450巷52號,縣市政府,24.49931484,118.4035868,特優級,文化育樂活動場所,女廁所,金門縣文化園區管理所,0
9020,9020020,西園里,W020000037,文化園區D棟男廁,金門縣金沙鎮西園里文化路450巷52號,縣市政府,24.49931484,118.4035868,特優級,文化育樂活動場所,男廁所,金門縣文化園區管理所,0
9020,9020020,西園里,W020000036,文化園區C棟B1女廁,金門縣金沙鎮西園里文化路450巷52號,縣市政府,24.49931484,118.4035868,特優級,文化育樂活動場所,女廁所,金門縣文化園區管理所,0
9020,9020010,金水里,W010000090,風獅爺文物坊男廁,金門縣金城鎮金水里前水頭42號,內政部國家公園署,24.40950578,118.2986691,特優級,觀光地區及風景區,男廁所,金門國家公園管理處,0
9020,9020010,古城里,W010000089,翟山坑道無障礙廁所,金門縣金城鎮古城里翟山坑道入口處,內政部國家公園署,24.39067026,118.3206772,特優級,觀光地區及風景區,無障礙廁所,金門國家公園管理處,1
9020,9020010,古城里,W010000088,古崗樓無障礙廁所,金門縣金城鎮古城里珠水路旁,內政部國家公園署,24.40945023,118.2903683,特優級,觀光地區及風景區,無障礙廁所,金門國家公園管理處,0
9020,9020010,北門里,W010000087,金城民防坑道入口處女廁,金門縣金城鎮北門里民生路7號,縣市政府,24.43307876,118.3202101,特優級,觀光地區及風景區,女廁所,金門縣政府觀光處,0
9020,9020010,北門里,W010000086,金城民防坑道入口處男廁,金門縣金城鎮北門里民生路7號,縣市政府,24.43307876,118.3202101,特優級,觀光地區及風景區,男廁所,金門縣政府觀光處,0
9020,9020030,山外里,W030000125,金湖鎮公有零售市場無障礙廁所,金門縣金湖鎮山外里黃海路90之5號,縣市政府,24.44171614,118.412988,特優級,商業營業場所,無障礙廁所,金湖鎮公所,0
9020,9020030,山外里,W030000124,金湖鎮公有零售市場女廁,金門縣金湖鎮山外里黃海路90之5號,縣市政府,24.44171614,118.412988,特優級,商業營業場所,女廁所,金湖鎮公所,0
9020,9020030,新市里,W030000123,中正公園女廁,金門縣金湖鎮新市里太湖路三段,縣市政府,24.4369451,118.4256881,特優級,公園,女廁所,金門縣林務所,0
9020,9020030,新市里,W030000122,中正公園男廁,金門縣金湖鎮新市里太湖路三段,縣市政府,24.4369451,118.4256881,特優級,公園,男廁所,金門縣林務所,0
9020,9020030,瓊林里,W030000121,瓊林坑道女廁,金門縣金湖鎮瓊林里瓊林大風獅爺,縣市政府,24.45653688,118.3742926,特優級,觀光地區及風景區,女廁所,金湖鎮公所,0
9020,9020030,瓊林里,W030000120,瓊林坑道男廁,金門縣金湖鎮瓊林里瓊林大風獅爺,縣市政府,24.45653688,118.3742926,特優級,觀光地區及風景區,男廁所,金湖鎮公所,0
9020,9020010,金水里,W010000098,水頭商港3號男廁,金門縣金城鎮金水里西海路一段5號,縣市政府,24.41529509,118.2866266,特優級,交通,男廁所,金門縣港務處,0
9020,9020010,金水里,W010000097,水頭商港2號無障礙廁所,金門縣金城鎮金水里西海路一段5號,縣市政府,24.41529509,118.2866266,特優級,交通,無障礙廁所,金門縣港務處,1
9020,9020030,新市里,W030000048,金湖鎮立圖書館1F男廁,金門縣金湖鎮新市里林森路,縣市政府,24.44204055,118.4166908,特優級,文化育樂活動場所,男廁所,金湖鎮公所,0
9020,9020010,北門里,W010000028,金城鎮公所男廁,金門縣金城鎮北門里民生路,縣市政府,24.43275911,118.32082,特優級,民眾洽公場所,男廁所,金城鎮公所,0
9020,9020010,西門里,W010000013,文化中心男廁,金門縣金城鎮西門里環島北路一段,縣市政府,24.44068385,118.3232554,特優級,文化育樂活動場所,男廁所,金門縣文化局,0
9020,9020040,盤山村,W040000019,金寧鄉公所男廁,金門縣金寧鄉盤山村仁愛新村,縣市政府,24.45087347,118.3347443,特優級,民眾洽公場所,男廁所,金寧鄉公所,0
9020,9020020,汶沙里,W020000006,金沙鎮公所3F男廁,金門縣金沙鎮汶沙里環島東路一段,縣市政府,24.48904489,118.4132302,特優級,民眾洽公場所,男廁所,金沙鎮公所,0
9020,9020030,正義里,W030000025,金門縣環境保護局男廁,金門縣金湖鎮正義里尚義,縣市政府,24.44031379,118.3695794,特優級,民眾洽公場所,男廁所,金門縣環境保護局,0
9020,9020030,新湖里,W030000038,北基后園68號加油站公廁,金門縣金湖鎮新湖里后園,北基國際股份有限公司,24.43867301,118.4051281,特優級,商業營業場所,混合廁所,北基國際股份有限公司,0
9020,9020030,正義里,W030000017,環保公園1號女廁,金門縣金湖鎮正義里環保公園,縣市政府,24.43828065,118.3688349,特優級,公園,女廁所,金門縣環境保護局,0
9020,9020030,正義里,W030000016,環保公園1號男廁,金門縣金湖鎮正義里環保公園,縣市政府,24.43828065,118.3688349,特優級,公園,男廁所,金門縣環境保護局,0
9020,9020010,西門里,W010000007,金城民防坑道出口處男廁,金門縣金城鎮西門里金門高中旁,縣市政府,24.4370361,118.3122324,特優級,觀光地區及風景區,男廁所,金門縣政府觀光處,0
9020,9020050,林湖村,W050000010,八達樓子無障礙廁所,金門縣烈嶼鄉林湖村九井路,縣市政府,24.42997236,118.2461115,特優級,觀光地區及風景區,無障礙廁所,烈嶼鄉公所,0
9020,9020050,上林村,W050000003,衛福部金門醫院烈嶼分院男廁,金門縣烈嶼鄉上林村后井,衛生福利部,24.43099328,118.2425126,特優級,社福機構、集會場所,男廁所,衛生福利部金門醫院烈嶼分院,0
9020,9020010,北門里,W010000026,總兵署女廁,金門縣金城鎮北門里浯江街,縣市政府,24.43260458,118.318839,特優級,觀光地區及風景區,女廁所,金門縣政府觀光處,0
9020,9020040,古寧村,W040000008,李光前將軍廟男廁,金門縣金寧鄉古寧村西浦頭,縣市政府,24.46848019,118.3168401,特優級,宗教禮儀場所,男廁所,金寧鄉公所,0
9020,9020010,北門里,W010000025,總兵署男廁,金門縣金城鎮北門里浯江街,縣市政府,24.43260458,118.318839,特優級,觀光地區及風景區,男廁所,金門縣政府觀光處,0
9020,9020010,古城里,W010000029,古崗樓男廁,金門縣金城鎮古城里珠水路旁,內政部國家公園署,24.39581014,118.3152648,特優級,觀光地區及風景區,男廁所,金門國家公園管理處,0
9020,9020050,林湖村,W050000009,八達樓子女廁,金門縣烈嶼鄉林湖村九井路,縣市政府,24.42997236,118.2461115,特優級,觀光地區及風景區,女廁所,烈嶼鄉公所,0
9020,9020050,林湖村,W050000008,八達樓子男廁,金門縣烈嶼鄉林湖村九井路,縣市政府,24.42997236,118.2461115,特優級,觀光地區及風景區,男廁所,烈嶼鄉公所,0
9020,9020050,林湖村,W050000011,東林海濱公園女廁,金門縣烈嶼鄉林湖村南環道,縣市政府,24.42494864,118.2509515,特優級,公園,女廁所,烈嶼鄉公所,0
9020,9020050,西口村,W050000006,湖井頭戰史館男廁,金門縣烈嶼鄉西口村湖井頭,縣市政府,24.44660195,118.231651,特優級,觀光地區及風景區,男廁所,烈嶼鄉公所,0
9020,9020050,上林村,W050000002,上林將軍廟男廁,金門縣烈嶼鄉上林村上林,內政部國家公園署,24.42854724,118.2284576,特優級,宗教禮儀場所,男廁所,金門國家公園管理處,0
9020,9020040,榜林村,W040000016,金酒公司行政大樓女廁,金門縣金寧鄉榜林村桃園路,縣市政府,24.43228986,118.3431711,特優級,商業營業場所,女廁所,金門酒廠實業股份有限公司,0
9020,9020030,瓊林里,W030000034,社福館1F男廁,金門縣金湖鎮瓊林里瓊徑路,縣市政府,24.45252838,118.3811618,特優級,社福機構、集會場所,男廁所,金門縣社會福利館,0
9020,9020040,盤山村,W040000011,乳山遊客中心男廁,金門縣金寧鄉盤山村桃園路,內政部國家公園署,24.43674428,118.3533848,特優級,觀光地區及風景區,男廁所,金門國家公園管理處,0
9020,9020040,后盤村,W040000001,國家公園大門左側男廁,金門縣金寧鄉后盤村伯玉路二段,內政部國公園署,24.44388635,118.3533229,特優級,觀光地區及風景區,男廁所,金門國家公園管理處,1
9020,9020030,瓊林里,W030000031,特約茶室展示館男廁,金門縣金湖鎮瓊林里小徑,內政部國家公園署,24.44848155,118.3849279,特優級,觀光地區及風景區,男廁所,金門國家公園管理處,0
9020,9020030,新湖里,W030000039,金門陶瓷廠女廁,金門縣金湖鎮新湖里漁村,縣市政府,24.43536602,118.4065972,特優級,觀光地區及風景區,女廁所,金門縣陶瓷廠,0
9020,9020030,新市里,W030000007,衛福部金門醫院男廁,金門縣金湖鎮新市里復興路,衛生福利部,24.44161491,118.4186459,特優級,社福機構、集會場所,男廁所,金門縣衛生福利部,0
9020,9020030,山外里,W030000003,太武山1號女廁,金門縣金湖鎮山外里太武山,國家公園署,24.45612863,118.4026125,特優級,觀光地區及風景區,女廁所,金門國家公園管理處,1
9020,9020030,山外里,W030000002,太武山1號男廁,金門縣金湖鎮山外里太武山,國家公園署,24.45612863,118.4026125,特優級,觀光地區及風景區,男廁所,金門國家公園管理處,1
9020,9020010,南門里,W010000021,體育館-北堤路側女廁,金門縣金城鎮南門里民族路,縣市政府,24.42969943,118.3144643,特優級,文化育樂活動場所,女廁所,金門縣立體育場,0
9020,9020010,南門里,W010000020,體育館-北堤路側男廁,金門縣金城鎮南門里民族路,縣市政府,24.42969943,118.3144643,特優級,文化育樂活動場所,男廁所,金門縣立體育場,0
9020,9020010,金水里,W010000034,水頭商港旅客服務中心男廁,金門縣金城鎮金水里西海路一段,縣市政府,24.41529509,118.2866266,特優級,交通,男廁所,金門縣港務處,0
9020,9020010,金水里,W010000032,金水國小男廁,金門縣金城鎮金水里前水頭,國家公園署,24.40948981,118.298069,特優級,觀光地區及風景區,男廁所,金門國家公園管理處,0
9020,9020010,金水里,W010000031,茅山塔男廁,金門縣金城鎮金水里茅山塔停車場,縣市政府,24.40945023,118.2903683,特優級,觀光地區及風景區,男廁所,金門縣林務所,0
9020,9020010,金水里,W010000036,水頭商港旅客服務中心無障礙廁所,金門縣金城鎮金水里西海路一段,縣市政府,24.41529509,118.2866266,特優級,交通,無障礙廁所,金門縣港務處,0
9020,9020010,金水里,W010000033,金水國小女廁,金門縣金城鎮金水里前水頭,國家公園署,24.41529509,118.2866266,特優級,觀光地區及風景區,女廁所,金門國家公園管理處,0
9020,9020010,金水里,W010000035,水頭商港旅客服務中心女廁,金門縣金城鎮金水里西海路一段,縣市政府,24.41529509,118.2866266,特優級,交通,女廁所,金門縣港務處,0
9020,9020020,官嶼里,W020000013,馬山觀測站男廁,金門縣金沙鎮官嶼里馬山觀測站,國家公園署,24.52777592,118.4088806,特優級,觀光地區及風景區,男廁所,金門國家公園管理處,1
9020,9020020,汶沙里,W020000003,汶沙里菜市場男廁,金門縣金沙鎮汶沙里汶沙里菜市場旁,縣市政府,24.48987439,118.4142937,特優級,商業營業場所,男廁所,金沙鎮公所,0
9020,9020020,大洋里,W020000012,森林公園男廁,金門縣金沙鎮大洋里林務所停車場,縣市政府,24.45885521,118.4424607,特優級,公園,男廁所,金門縣林務所,0
9020,9020020,汶沙里,W020000001,沙美車站男廁,金門縣金沙鎮汶沙里環島東路一段,縣市政府,24.48903257,118.4133272,特優級,交通,男廁所,金沙鎮公所,0
9020,9020020,三山里,W020000007,民俗文化村男廁,金門縣金沙鎮三山里山后民俗文化村,內政部,24.50429061,118.441019,特優級,觀光地區及風景區,男廁所,金門國家公園管理處,0
9020,9020030,山外里,W030000110,榕園無障礙廁所,金門縣金湖鎮山外里安民1之7號,縣市政府,24.44367799,118.4301271,特優級,觀光地區及風景區,無障礙廁所,金門縣林務所,1
9020,9020030,蓮庵里,W030000109,畜試所野放鹿園女廁,金門縣金湖鎮蓮庵里惠民富康農莊17號,縣市政府,24.43397289,118.4385532,特優級,觀光地區及風景區,女廁所,金門縣畜產試驗所,0
9020,9020030,蓮庵里,W030000108,畜試所野放鹿園男廁,金門縣金湖鎮蓮庵里惠民富康農莊17號,縣市政府,24.43397289,118.4385532,特優級,觀光地區及風景區,男廁所,金門縣畜產試驗所,0
9020,9020050,林湖村,W050000035,烈嶼鄉公所3F無障礙廁所,金門縣烈嶼鄉林湖村西路60號,縣市政府,24.42947547,118.2443952,特優級,民眾洽公場所,無障礙廁所,烈嶼鄉公所,0
9020,9020050,林湖村,W050000034,烈嶼鄉公所3F女廁,金門縣烈嶼鄉林湖村西路60號,縣市政府,24.42947547,118.2443952,特優級,民眾洽公場所,女廁所,烈嶼鄉公所,0
9020,9020050,林湖村,W050000033,烈嶼鄉公所3F男廁,金門縣烈嶼鄉林湖村西路60號,縣市政府,24.42947547,118.2443952,特優級,民眾洽公場所,男廁所,烈嶼鄉公所,0
