country,city,village,number,name,address,administration,latitude,longitude,grade,type2,type,exec,diaper
10016,10016010,陽明里,X010000551,北辰公有市場二樓後女廁,澎湖縣馬公市陽明里,縣市政府,23.571269,119.57256,特優級,,女廁所,馬公市公所,0
10016,10016010,陽明里,X010000550,北辰公有市場二樓後男廁,澎湖縣馬公市陽明里,縣市政府,23.571269,119.57256,特優級,,男廁所,馬公市公所,0
10016,10016010,陽明里,X010000549,北辰公有市場二樓前女廁,澎湖縣馬公市陽明里,縣市政府,23.57217,119.572509,特優級,,女廁所,馬公市公所,0
10016,10016010,陽明里,X010000548,北辰公有市場二樓前男廁,澎湖縣馬公市陽明里,縣市政府,23.57217,119.572509,特優級,,男廁所,馬公市公所,0
10016,10016040,二崁村,X040000082,西嶼大菓葉親子廁所,澎湖縣西嶼鄉海巡署大菓葉站旁,交通部,23.60544,119.519616,特優級,觀光地區及風景區,親子廁所,澎湖國家風景區管理處,0
10016,10016040,二崁村,X040000081,西嶼大菓葉無障礙廁,澎湖縣西嶼鄉海巡署大菓葉站旁,交通部,23.60544,119.519616,特優級,觀光地區及風景區,無障礙廁所,澎湖國家風景區管理處,0
10016,10016040,二崁村,X040000080,西嶼大菓葉女廁,澎湖縣西嶼鄉海巡署大菓葉站旁,交通部,23.60544,119.519616,特優級,觀光地區及風景區,女廁所,澎湖國家風景區管理處,0
10016,10016040,二崁村,X040000079,西嶼大菓葉男廁,澎湖縣西嶼鄉海巡署大菓葉站旁,交通部,23.60544,119.519616,特優級,觀光地區及風景區,男廁所,澎湖國家風景區管理處,0
10016,10016010,西文里,X010000557,澎湖國際廣場北側無障礙廁,澎湖縣馬公市西文里新店路,縣市政府,23.56668167,119.5777273,特優級,公園,無障礙廁所,澎湖縣政府建設處,0
10016,10016010,西文里,X010000556,澎湖國際廣場北側女廁,澎湖縣馬公市西文里,縣市政府,23.56669151,119.5776415,特優級,公園,女廁所,澎湖縣政府建設處,0
10016,10016010,西文里,X010000555,澎湖國際廣場北側男廁,澎湖縣馬公市西文里新店路,縣市政府,23.56679476,119.5776361,特優級,公園,男廁所,澎湖縣政府建設處,0
10016,10016010,陽明里,X010000554,澎湖國際廣場南側無障礙廁,澎湖縣馬公市陽明里新店路(喜來登飯店旁),縣市政府,23.56749789,119.5763648,特優級,公園,無障礙廁所,澎湖縣政府建設處,0
10016,10016010,陽明里,X010000553,澎湖國際廣場南側女廁,澎湖縣馬公市陽明里新店路(喜來登飯店旁),縣市政府,23.56738972,119.5765471,特優級,公園,女廁所,澎湖縣政府建設處,0
10016,10016010,陽明里,X010000552,澎湖國際廣場南側男廁,澎湖縣馬公市陽明里新店路一九七號,縣市政府,23.5670947,119.5777917,特優級,公園,男廁所,澎湖縣政府建設處,0
10016,10016010,虎井里,X010000559,虎井活動中心女廁,澎湖縣馬公市虎井里,縣市政府,23.48653473,119.5162082,優等級,社福機構、集會場所,女廁所,馬公市公所,0
10016,10016010,虎井里,X010000558,虎井活動中心男廁,澎湖縣馬公市虎井里,縣市政府,23.48651013,119.5161653,優等級,社福機構、集會場所,混合廁所,馬公市公所,0
10016,10016040,池東村,X040000084,池東公有零售市場女廁,澎湖縣西嶼鄉池東村,縣市政府,23.602519,119.510334,特優級,,女廁所,西嶼鄉公所,0
10016,10016040,池東村,X040000083,池東公有零售市場男廁,澎湖縣西嶼鄉池東村,縣市政府,23.602519,119.510334,特優級,,男廁所,西嶼鄉公所,0
10016,10016020,龍門村,X020000131,龍門社區公廁無障礙廁,澎湖縣湖西鄉龍門村,其他,23.56539,119.675994,優等級,社福機構、集會場所,無障礙廁所,湖西鄉公所,0
10016,10016020,龍門村,X020000130,龍門社區公廁女廁,澎湖縣湖西鄉龍門村,其他,23.56539,119.675994,優等級,社福機構、集會場所,女廁所,湖西鄉公所,0
10016,10016020,龍門村,X020000129,龍門社區公廁男廁,澎湖縣湖西鄉龍門村,其他,23.56539,119.675994,優等級,社福機構、集會場所,男廁所,湖西鄉公所,0
10016,10016020,湖西村,X020000030,湖西生態園區公廁,澎湖縣湖西鄉湖西村,其他,23.585684,119.659354,優等級,文化育樂活動場所,混合廁所,湖西鄉公所,0
10016,10016010,復興里,X010000011,馬公港旅客服務中心二樓女廁,澎湖縣馬公市復興里臨海路36-1號,其他,23.56307,119.564464,特優級,,女廁所,臺灣港務股份有限公司高雄港務公司,0
10016,10016010,復興里,X010000010,馬公港旅客服務中心二樓男廁,馬公市復興里臨海路36-1號,其他,23.56313893,119.564783,特優級,,男廁所,臺灣港務股份有限公司高雄港務公司,0
10016,10016020,林投村,X020000117,林投公園殘廁2(北側),湖西鄉林投村1-1號,交通部,23.56154822,119.641993,特優級,公園,無障礙廁所,澎湖國家風景區管理處,0
10016,10016020,林投村,X020000116,林投公園女廁2(北側),湖西鄉林投村1-1號,交通部,23.56150889,119.6419823,特優級,公園,女廁所,澎湖國家風景區管理處,0
10016,10016020,林投村,X020000115,林投公園男廁2(北側),湖西鄉林投村1-1號,交通部,23.56152855,119.6420145,特優級,公園,男廁所,澎湖國家風景區管理處,0
10016,10016010,中興里,X010000096,澎湖縣長青活動中心殘廁,澎湖縣馬公市介壽路7-1號,縣市政府,23.567373,119.561568,特優級,社福機構、集會場所,無障礙廁所,澎湖縣長青活動中心,0
10016,10016040,內垵村,X040000061,東昌營區公廁女廁,澎湖縣西嶼鄉內垵村,交通部,23.5687763,119.5065737,特優級,觀光地區及風景區,女廁所,澎湖國家風景區管理處北海管理站,0
10016,10016040,內垵村,X040000060,東昌營區公廁男廁,澎湖縣西嶼鄉內垵村,交通部,23.56865829,119.5068955,特優級,觀光地區及風景區,男廁所,澎湖國家風景區管理處北海管理站,0
10016,10016040,橫礁村,X040000002,漁翁島遊客中心女廁,澎湖縣西嶼鄉1之2號,交通部,23.639695,119.540802,特優級,觀光地區及風景區,女廁所,澎湖國家風景區管理處,0
10016,10016040,橫礁村,X040000001,漁翁島遊客中心男廁,澎湖縣西嶼鄉1之2號,交通部,23.639695,119.540802,特優級,觀光地區及風景區,男廁所,澎湖國家風景區管理處,0
10016,10016010,東衛里,X010000477,東衛石雕公園殘廁,澎湖縣馬公市東衛里,交通部,23.5710184,119.597683,特優級,觀光地區及風景區,無障礙廁所,澎湖國家風景區管理處,0
10016,10016010,東衛里,X010000476,東衛石雕公園女廁,澎湖縣馬公市東衛里,交通部,23.568533,119.598196,特優級,觀光地區及風景區,女廁所,澎湖國家風景區管理處,0
10016,10016010,東衛里,X010000475,東衛石雕公園男廁,澎湖縣馬公市東衛里,交通部,23.57068897,119.5978546,特優級,觀光地區及風景區,男廁所,澎湖國家風景區管理處,0
10016,10016010,光華里,X010000419,澎湖休憩園區殘廁3(花海區),澎湖縣馬公市光華里,縣市政府,23.55795862,119.6071029,特優級,公園,無障礙廁所,林務公園管理所,0
10016,10016010,光華里,X010000418,澎湖休憩園區女廁3(花海區),澎湖縣馬公市光華里,縣市政府,23.55749,119.600633,特優級,公園,女廁所,林務公園管理所,0
10016,10016010,光華里,X010000417,澎湖休憩園區男廁3(花海區),澎湖縣馬公市光華里,縣市政府,23.55784061,119.6073818,特優級,公園,男廁所,林務公園管理所,0
10016,10016010,光華里,X010000416,澎湖休憩園區殘廁2(林務所旁),澎湖縣馬公市光華里,縣市政府,23.55795862,119.6042061,特優級,公園,無障礙廁所,林務公園管理所,0
10016,10016060,中和村,X060000004,七美鄉公所男廁,澎湖縣七美鄉中和村2鄰10號,縣市政府,23.20661361,119.4244874,特優級,,男廁所,七美鄉公所,0
10016,10016020,城北村,X020000051,澎湖縣政府環境保護局2樓男廁,澎湖縣湖西鄉城北村,縣市政府,23.56139087,119.6130466,特優級,民眾洽公場所,男廁所,澎湖縣政府環境保護局,0
10016,10016030,後寮村,X030000077,三十人公廟公廁女廁,澎湖縣白沙鄉後寮村,交通部,23.66285244,119.5748198,特優級,民眾洽公場所,女廁所,澎湖國家風景區管理處,0
10016,10016030,後寮村,X030000076,三十人公廟公廁男廁,澎湖縣白沙鄉後寮村,交通部,23.66284262,119.574734,特優級,民眾洽公場所,男廁所,澎湖國家風景區管理處,0
10016,10016010,光復里,X010000110,南海遊客服務中心殘廁,澎湖縣馬公市新營路25號,交通部,23.56672101,119.5727009,特優級,,無障礙廁所,澎湖國家風景區管理處,0
10016,10016020,隘門村,X020000090,澎湖機場一樓外候機室北側無障礙廁所,湖西鄉隘門村126-5號,交通部,23.55997471,119.6301699,特優級,,無障礙廁所,交通部民用航空局馬公航空站,0
10016,10016020,隘門村,X020000089,澎湖機場一樓旅客入境室女廁,湖西鄉隘門村126-5號,交通部,23.5601714,119.6302128,特優級,,女廁所,交通部民用航空局馬公航空站,0
10016,10016020,隘門村,X020000088,澎湖機場一樓旅客入境室男廁,湖西鄉隘門村126-5號,交通部,23.56001405,119.6301699,特優級,,男廁所,交通部民用航空局馬公航空站,0
10016,10016020,隘門村,X020000087,澎湖機場二樓內候機室國際線無障礙廁,湖西鄉隘門村126-5號,交通部,23.55991571,119.629966,特優級,,無障礙廁所,交通部民用航空局馬公航空站,0
10016,10016020,隘門村,X020000086,澎湖機場二樓內候機室國際線女廁,湖西鄉隘門村126-5號,交通部,23.55995504,119.6303201,特優級,,女廁所,交通部民用航空局馬公航空站,0
10016,10016020,隘門村,X020000085,澎湖機場二樓內候機室國際線男廁,湖西鄉隘門村126-5號,交通部,23.55997471,119.6302342,特優級,,男廁所,交通部民用航空局馬公航空站,0
10016,10016020,湖西村,X020000003,台灣中油湖西加油站無障礙,澎湖縣湖西鄉湖西村77-15號,經濟部,23.58450951,119.6553719,特優級,,無障礙廁所,台灣中油公司湖西站,0
10016,10016030,吉貝村,X030000116,吉貝大將軍爺廟無障礙廁,澎湖縣白沙鄉吉貝村,交通部,23.75339454,119.6102035,特優級,宗教禮儀場所,無障礙廁所,澎湖國家風景區北海管理處,0
10016,10016030,吉貝村,X030000115,吉貝大將軍爺廟女廁,澎湖縣白沙鄉吉貝村,交通部,23.75324724,119.6102464,特優級,宗教禮儀場所,女廁所,澎湖國家風景區北海管理處,0
10016,10016030,吉貝村,X030000114,吉貝大將軍爺廟男廁,澎湖縣白沙鄉吉貝村,交通部,23.75305084,119.6096349,特優級,宗教禮儀場所,男廁所,澎湖國家風景區北海管理處,0
10016,10016040,內垵村,X040000059,內垵遊憩區無障礙廁所,澎湖縣西嶼鄉內垵村,交通部,23.56968101,119.4937849,特優級,觀光地區及風景區,無障礙廁所,澎湖國家風景區管理處,0
10016,10016040,內垵村,X040000058,內垵遊憩區女廁,澎湖縣西嶼鄉內垵村,交通部,23.56973509,119.4939351,特優級,觀光地區及風景區,女廁所,澎湖國家風景區管理處,0
10016,10016040,內垵村,X040000057,內垵遊憩區男廁,澎湖縣西嶼鄉內垵村,交通部,23.56981254,119.4939271,特優級,觀光地區及風景區,男廁所,澎湖國家風景區管理處,0
10016,10016010,東衛里,X010000481,馬公市清潔隊一樓男廁,澎湖縣馬公市東衛里600號,縣市政府,23.563665,119.60475,特優級,民眾洽公場所,男廁所,馬公市公所,0
10016,10016010,東衛里,X010000480,馬公市清潔隊一樓女廁,澎湖縣馬公市東衛里600號,縣市政府,23.563665,119.60475,特優級,民眾洽公場所,女廁所,馬公市公所,0
10016,10016010,陽明里,X010000360,澎湖縣圖書館二樓殘障廁,澎湖縣馬公市陽明里中華路236-1號,縣市政府,23.57024153,119.5779204,特優級,文化育樂活動場所,無障礙廁所,澎湖縣政府文化局,0
10016,10016010,陽明里,X010000359,澎湖縣圖書館二樓女廁,澎湖縣馬公市陽明里中華路236-1號,縣市政府,23.57018253,119.5780063,特優級,文化育樂活動場所,女廁所,澎湖縣政府文化局,0
10016,10016010,陽明里,X010000358,澎湖縣圖書館二樓男廁,澎湖縣馬公市陽明里中華路236-1號,縣市政府,23.57016286,119.5779419,特優級,文化育樂活動場所,男廁所,澎湖縣政府文化局,0
10016,10016010,西文里,X010000408,生活博物館四樓殘障廁,澎湖縣馬公市西文里新生路327號,縣市政府,23.56702586,119.5793581,特優級,文化育樂活動場所,無障礙廁所,澎湖縣政府文化局博物館科,0
10016,10016010,西文里,X010000407,生活博物館三樓殘障廁,澎湖縣馬公市西文里新生路327號,縣市政府,23.56705536,119.5794868,特優級,文化育樂活動場所,無障礙廁所,澎湖縣政府文化局博物館科,0
10016,10016010,西文里,X010000406,生活博物館二樓殘障廁,澎湖縣馬公市西文里新生路327號,縣市政府,23.56707503,119.579401,特優級,文化育樂活動場所,無障礙廁所,澎湖縣政府文化局博物館科,0
10016,10016010,西文里,X010000405,生活博物館B1殘障廁,澎湖縣馬公市西文里新生路327號,縣市政府,23.56704553,119.5793474,特優級,文化育樂活動場所,無障礙廁所,澎湖縣政府文化局博物館科,0
10016,10016010,西文里,X010000404,生活博物館一樓殘障廁,澎湖縣馬公市西文里新生路327號,縣市政府,23.56711437,119.5794439,特優級,文化育樂活動場所,無障礙廁所,澎湖縣政府文化局博物館科,0
10016,10016010,西文里,X010000403,生活博物館四樓女廁,澎湖縣馬公市西文里新生路327號,縣市政府,23.5670947,119.5794868,特優級,文化育樂活動場所,女廁所,澎湖縣政府文化局博物館科,0
10016,10016010,西文里,X010000402,生活博物館四樓男廁,澎湖縣馬公市西文里新生路327號,縣市政府,23.5670947,119.5794868,特優級,文化育樂活動場所,男廁所,澎湖縣政府文化局博物館科,0
10016,10016010,西文里,X010000401,生活博物館三樓女廁,澎湖縣馬公市西文里新生路327號,縣市政府,23.5670947,119.5794439,特優級,文化育樂活動場所,女廁所,澎湖縣政府文化局博物館科,0
10016,10016010,西文里,X010000400,生活博物館三樓男廁,澎湖縣馬公市西文里新生路327號,縣市政府,23.56717337,119.5794654,特優級,文化育樂活動場所,男廁所,澎湖縣政府文化局博物館科,0
10016,10016010,西文里,X010000399,生活博物館二樓女廁,澎湖縣馬公市西文里新生路327號,縣市政府,23.56711437,119.5794654,特優級,文化育樂活動場所,女廁所,澎湖縣政府文化局博物館科,0
10016,10016010,西文里,X010000398,生活博物館二樓男廁,澎湖縣馬公市西文里新生路327號,縣市政府,23.56707503,119.5794439,特優級,文化育樂活動場所,男廁所,澎湖縣政府文化局博物館科,0
10016,10016050,東安村,X050000006,鴛鴦窟親子廁,澎湖縣望安鄉東安村,交通部,23.362529,119.506796,特優級,觀光地區及風景區,親子廁所,澎湖國家風景區管理處,0
10016,10016050,東安村,X050000005,鴛鴦窟女廁,澎湖縣望安鄉東安村,交通部,23.362529,119.506796,特優級,觀光地區及風景區,女廁所,澎湖國家風景區管理處,0
10016,10016050,東安村,X050000004,鴛鴦窟男廁,澎湖縣望安鄉東安村,交通部,23.362529,119.506796,特優級,觀光地區及風景區,男廁所,澎湖國家風景區管理處,0
10016,10016010,陽明里,X010000109,南海碼頭候船室殘障,澎湖縣馬公市新營路100號,縣市政府,23.567122,119.573642,特優級,,無障礙廁所,澎湖縣政府車船管理處,0
10016,10016030,港子村,X030000019,白沙社福館一樓無障礙廁,澎湖縣白沙鄉港子村,縣市政府,23.64936448,119.6006119,特優級,文化育樂活動場所,無障礙廁所,澎湖縣政府社會處,0
10016,10016030,港子村,X030000018,白沙社福館一樓廁所,澎湖縣白沙鄉港子村,縣市政府,23.64864459,119.6002686,特優級,文化育樂活動場所,混合廁所,澎湖縣政府社會處,0
10016,10016060,中和村,X060000006,七美鄉公所無障礙廁,澎湖縣七美鄉中和村2鄰10號,縣市政府,23.20728661,119.4244444,特優級,,無障礙廁所,七美鄉公所,0
10016,10016060,中和村,X060000005,七美鄉公所女廁,澎湖縣七美鄉中和村2鄰10號,縣市政府,23.20712883,119.424305,特優級,,女廁所,七美鄉公所,0
10016,10016060,東湖村,X060000003,雙心石滬無障礙廁,澎湖縣七美鄉東湖村,交通部,23.21941966,119.446063,特優級,觀光地區及風景區,無障礙廁所,澎湖國家風景區管理處,0
10016,10016060,東湖村,X060000002,雙心石滬女廁,澎湖縣七美鄉東湖村,交通部,23.2194591,119.4461274,特優級,觀光地區及風景區,女廁所,澎湖國家風景區管理處,0
10016,10016060,東湖村,X060000001,雙心石滬男廁,澎湖縣七美鄉東湖村,交通部,23.2194591,119.4459343,特優級,觀光地區及風景區,男廁所,澎湖國家風景區管理處,0
10016,10016030,赤崁村,X030000058,白沙鄉立圖書館三樓廁所,澎湖縣白沙鄉赤崁村368號,縣市政府,23.66633108,119.5985037,特優級,文化育樂活動場所,混合廁所,白沙鄉公所,0
10016,10016030,赤崁村,X030000057,白沙鄉立圖書館二樓女廁,澎湖縣白沙鄉赤崁村368號,縣市政府,23.66633108,119.5985252,特優級,文化育樂活動場所,女廁所,白沙鄉公所,0
10016,10016030,赤崁村,X030000056,白沙鄉立圖書館一樓男廁,澎湖縣白沙鄉赤崁村368號,縣市政府,23.66632617,119.5984823,特優級,文化育樂活動場所,男廁所,白沙鄉公所,0
10016,10016030,岐頭村,X030000035,澎湖水族館外無障礙廁,澎湖縣白沙鄉岐頭村58號,農業部,23.650001,119.604305,特優級,觀光地區及風景區,無障礙廁所,澎湖水族館,0
10016,10016030,岐頭村,X030000034,澎湖水族館外女廁,澎湖縣白沙鄉岐頭村58號,農業部,23.650001,119.604305,特優級,觀光地區及風景區,女廁所,澎湖水族館,0
10016,10016030,岐頭村,X030000033,澎湖水族館外男廁,澎湖縣白沙鄉岐頭村58號,農業部,23.650001,119.604305,特優級,觀光地區及風景區,男廁所,澎湖水族館,0
10016,10016030,岐頭村,X030000032,澎湖水族館二樓無障礙廁,澎湖縣白沙鄉岐頭村58號,農業部,23.650001,119.604305,特優級,觀光地區及風景區,無障礙廁所,澎湖水族館,0
10016,10016030,岐頭村,X030000031,澎湖水族館二樓女廁,澎湖縣白沙鄉岐頭村58號,農業部,23.650001,119.604305,特優級,觀光地區及風景區,女廁所,澎湖水族館,0
10016,10016030,岐頭村,X030000030,澎湖水族館二樓男廁,澎湖縣白沙鄉岐頭村58號,農業部,23.650001,119.604305,特優級,觀光地區及風景區,男廁所,澎湖水族館,0
10016,10016030,岐頭村,X030000029,澎湖水族館一樓無障礙廁,澎湖縣白沙鄉岐頭村58號,農業部,23.650001,119.604305,特優級,觀光地區及風景區,無障礙廁所,澎湖水族館,0
10016,10016030,岐頭村,X030000028,澎湖水族館一樓女廁,澎湖縣白沙鄉岐頭村58號,農業部,23.650001,119.604305,特優級,觀光地區及風景區,女廁所,澎湖水族館,0
10016,10016030,岐頭村,X030000027,澎湖水族館一樓男廁,澎湖縣白沙鄉岐頭村58號,農業部,23.650001,119.604305,特優級,觀光地區及風景區,男廁所,澎湖水族館,0
10016,10016010,陽明里,X010000307,統一超商揚光門市公廁,澎湖縣馬公市陽明里中華路175號1樓,其他,23.57190342,119.5745516,特優級,,混合廁所,統一超商揚光門市,0
10016,10016020,隘門村,X020000108,隘門社區女廁,澎湖縣湖西鄉隘門村40號,其他,23.56154822,119.6371222,特優級,社福機構、集會場所,女廁所,三聖殿管理委員會,0
10016,10016020,隘門村,X020000107,隘門社區男廁,澎湖縣湖西鄉隘門村40號,其他,23.56154822,119.6371222,特優級,社福機構、集會場所,男廁所,三聖殿管理委員會,0
10016,10016020,北寮村,X020000033,北寮奎壁山殘廁,澎湖縣湖西鄉北寮村,交通部,23.59964602,119.6711648,特優級,觀光地區及風景區,無障礙廁所,澎湖國家風景區管理處,0
10016,10016020,北寮村,X020000032,北寮奎壁山女廁,澎湖縣湖西鄉北寮村,交通部,23.59966814,119.6711487,特優級,觀光地區及風景區,女廁所,澎湖國家風景區管理處,0
10016,10016020,北寮村,X020000031,北寮奎壁山男廁,澎湖縣湖西鄉北寮村,交通部,23.59959441,119.6711272,特優級,觀光地區及風景區,男廁所,澎湖國家風景區管理處,0
10016,10016010,重慶里,X010000023,台灣中油馬公加油站女廁,澎湖縣馬公市民福路18號,經濟部,23.564964,119.568673,特優級,,女廁所,台灣中油公司馬公站,0
10016,10016050,水垵村,X050000023,天台山親子廁,望安鄉中社村,交通部,23.38104233,119.49489,特優級,觀光地區及風景區,親子廁所,澎湖國家風景區管理處,0
10016,10016050,水垵村,X050000022,天台山男廁,澎湖縣望安鄉水垵村,交通部,23.38096355,119.4949007,特優級,觀光地區及風景區,男廁所,澎湖國家風景區管理處,0
10016,10016050,水垵村,X050000021,天台山女廁,澎湖縣望安鄉水垵村,交通部,23.38098325,119.4949007,特優級,觀光地區及風景區,女廁所,澎湖國家風景區管理處,0
10016,10016050,東安村,X050000003,望安綠觿龜保育中心殘障,澎湖縣望安鄉東安村1-14號,交通部,23.3639,119.506798,特優級,觀光地區及風景區,無障礙廁所,澎湖國家風景區管理處,0
10016,10016040,小門村,X040000009,小門地質探索館無障礙廁,西嶼鄉小門村11-12號,交通部,23.65405717,119.5174098,特優級,觀光地區及風景區,無障礙廁所,澎湖國家風景區管理處,0
10016,10016040,小門村,X040000008,小門地質探索館男廁,西嶼鄉小門村11-12號,交通部,23.65398838,119.5173776,特優級,觀光地區及風景區,男廁所,澎湖國家風景區管理處,0
10016,10016010,陽明里,X010000304,北辰公有市場前男廁,馬公市北辰街20號,縣市政府,23.57011861,119.5720518,特優級,,男廁所,馬公市公所,0
10016,10016010,陽明里,X010000303,北辰公有市場前女廁,馬公市北辰街20號,縣市政府,23.56965642,119.5716977,特優級,,女廁所,馬公市公所,0
10016,10016010,光復里,X010000098,菊島之星農特產中心性別友善廁所,馬公市漁隆路50號,縣市政府,23.56579661,119.5698953,優等級,,性別友善廁所,澎湖縣政府農漁局,0
10016,10016060,南港村,X060000017,台灣中油七美加油站男廁,澎湖縣七美鄉南港村11鄰1-2號,經濟部,23.19476784,119.4221163,特優級,,男廁所,台灣中油公司七美站,0
10016,10016060,南港村,X060000016,台灣中油七美加油站女廁,澎湖縣七美鄉南港村11鄰1-2號,經濟部,23.1947777,119.422127,特優級,,女廁所,台灣中油公司七美站,0
10016,10016050,東安村,X050000015,台灣中油望安加油站女廁,澎湖縣望安鄉東安村2-14號,經濟部,23.36284226,119.5072925,特優級,,女廁所,台灣中油公司望安站,0
10016,10016040,外垵村,X040000075,台灣中油外垵加油站公廁,澎湖縣西嶼鄉外垵村89-2號,經濟部,23.56381011,119.4831419,特優級,,混合廁所,台灣中油公司外垵站,0
10016,10016030,通梁村,X030000082,台灣中油通梁加油站男廁,澎湖縣白沙鄉通梁村25-1號,經濟部,23.6595506,119.5629644,特優級,,男廁所,台灣中油公司通梁站,0
10016,10016030,通梁村,X030000081,台灣中油通梁加油站女廁,澎湖縣白沙鄉通梁村25-1號,經濟部,23.65958008,119.562943,特優級,,女廁所,台灣中油公司通梁站,0
10016,10016020,湖西村,X020000002,台灣中油湖西加油站男廁,澎湖縣湖西鄉湖西村77-15號,經濟部,23.58416536,119.6552432,特優級,,男廁所,台灣中油公司湖西站,0
10016,10016020,湖西村,X020000001,台灣中油湖西加油站女廁,澎湖縣湖西鄉湖西村77-15號,經濟部,23.58420469,119.6552324,特優級,,女廁所,台灣中油公司湖西站,0
10016,10016010,前寮里,X010000445,三總B1購物區女廁,澎湖縣馬公市前寮里90號,國防部,23.55450661,119.5839071,特優級,,女廁所,三軍總醫院澎湖分院,0
10016,10016010,前寮里,X010000444,三總B1購物區男廁,澎湖縣馬公市前寮里90號,國防部,23.55470331,119.5842934,特優級,,男廁所,三軍總醫院澎湖分院,0
10016,10016010,前寮里,X010000443,三總四樓婦兒門診區無障礙廁所,澎湖縣馬公市前寮里90號,國防部,23.55458529,119.5840359,特優級,,無障礙廁所,三軍總醫院澎湖分院,0
10016,10016010,前寮里,X010000442,三總四樓婦兒門診區廁所,澎湖縣馬公市前寮里90號,國防部,23.55470331,119.5842075,特優級,,混合廁所,三軍總醫院澎湖分院,0
10016,10016010,前寮里,X010000441,三總三樓加護病房區女廁,澎湖縣馬公市前寮里90號,國防部,23.5543886,119.5843792,特優級,,女廁所,三軍總醫院澎湖分院,0
10016,10016010,前寮里,X010000440,三總三樓加護病房區男廁,澎湖縣馬公市前寮里90號,國防部,23.55458529,119.5838213,特優級,,男廁所,三軍總醫院澎湖分院,0
10016,10016010,前寮里,X010000439,三總二樓血液透析室廁所,澎湖縣馬公市前寮里90號,國防部,23.55454595,119.583993,特優級,,混合廁所,三軍總醫院澎湖分院,0
10016,10016010,前寮里,X010000429,三總急診室公廁,澎湖縣馬公市前寮里90號,國防部,23.55450661,119.5838642,特優級,,混合廁所,三軍總醫院澎湖分院,0
10016,10016010,前寮里,X010000428,三總放射科男廁,澎湖縣馬公市前寮里90號,國防部,23.55434926,119.5837784,特優級,,男廁所,三軍總醫院澎湖分院,0
10016,10016010,前寮里,X010000427,三總放射科女廁,澎湖縣馬公市前寮里90號,國防部,23.55470331,119.58498,特優級,,女廁所,三軍總醫院澎湖分院,0
10016,10016010,前寮里,X010000426,三總一樓門診區無障礙公廁,澎湖縣馬公市前寮里90號,國防部,23.55458529,119.5852375,特優級,,無障礙廁所,三軍總醫院澎湖分院,0
10016,10016010,前寮里,X010000425,三總一樓門診區公廁,以澎湖縣馬公市前寮里90號,國防部,23.55458529,119.5852375,特優級,,混合廁所,三軍總醫院澎湖分院,0
10016,10016010,陽明里,X010000362,澎湖縣文化中心女廁,馬公市中華路230號,縣市政府,23.57150024,119.5774484,特優級,文化育樂活動場所,女廁所,澎湖縣政府文化局,0
10016,10016010,光復里,X010000103,南海遊客服務中心女廁3,馬公市新營路25號,交通部,23.56589495,119.5719552,特優級,,女廁所,交通部觀光局澎湖國家風景區管理處,0
10016,10016010,光復里,X010000102,南海遊客服務中心女廁2,馬公市新營路25號,交通部,23.56632765,119.5720464,特優級,,女廁所,交通部觀光局澎湖國家風景區管理處,0
10016,10016010,光復里,X010000101,南海遊客服務中心女廁1,馬公市新營路25號,交通部,23.56683902,119.5725453,特優級,,女廁所,交通部觀光局澎湖國家風景區管理處,0
10016,10016010,中興里,X010000094,澎湖縣長青活動中心女廁,澎湖縣馬公市介壽路7-1號,縣市政府,23.567373,119.561568,特優級,社福機構、集會場所,女廁所,澎湖縣政府社會處,0
10016,10016010,中興里,X010000028,觀音亭運動公園南男廁,馬公市介壽路11號,縣市政府,23.56949417,119.5631361,優等級,公園,男廁所,林務公園管理所,0
10016,10016010,東衛里,X010000482,馬公市清潔隊一樓無障礙廁,澎湖縣馬公市東衛里600號,縣市政府,23.563665,119.60475,特優級,民眾洽公場所,無障礙廁所,馬公市公所,0
10016,10016050,東安村,X050000010,望安綠觿龜保育中心販賣部女廁,澎湖縣望安鄉東安村48號,交通部,23.356542,119.501514,特優級,觀光地區及風景區,女廁所,澎湖國家風景區管理處,0
10016,10016050,東安村,X050000009,望安綠觿龜保育中心販賣部男廁,澎湖縣望安鄉東安村48號,交通部,23.356542,119.501514,特優級,觀光地區及風景區,男廁所,澎湖國家風景區管理處,0
10016,10016050,東安村,X050000008,望安綠觿龜保育中心女廁2,澎湖縣望安鄉東安村48號,交通部,23.356542,119.501514,特優級,觀光地區及風景區,女廁所,澎湖國家風景區管理處,0
10016,10016050,東安村,X050000007,望安綠觿龜保育中心男廁2,澎湖縣望安鄉東安村48號,交通部,23.356542,119.501514,特優級,觀光地區及風景區,男廁所,澎湖國家風景區管理處,0
10016,10016040,二崁村,X040000024,二崁公廁殘廁,澎湖縣西嶼鄉二崁村12-1號,交通部,23.60400624,119.5183003,優等級,觀光地區及風景區,無障礙廁所,澎湖國家風景區管理處,0
10016,10016040,二崁村,X040000023,二崁公廁女廁,澎湖縣西嶼鄉二崁村12-1號,交通部,23.60400624,119.5181715,特優級,觀光地區及風景區,女廁所,澎湖國家風景區管理處,0
10016,10016040,二崁村,X040000022,二崁公廁男廁,澎湖縣西嶼鄉二崁村12-1號,交通部,23.60407014,119.5183647,特優級,觀光地區及風景區,男廁所,澎湖國家風景區管理處,0
10016,10016040,竹灣村,X040000012,小門資訊站殘廁,澎湖縣西嶼鄉小門村,縣市政府,23.65137425,119.5180643,特優級,觀光地區及風景區,無障礙廁所,西嶼鄉公所,0
10016,10016040,竹灣村,X040000011,小門資訊站女廁,澎湖縣西嶼鄉小門村,縣市政府,23.65138408,119.5182037,特優級,觀光地區及風景區,女廁所,西嶼鄉公所,0
10016,10016040,竹灣村,X040000010,小門資訊站男廁,澎湖縣西嶼鄉小門村,縣市政府,23.65114821,119.5181179,特優級,觀光地區及風景區,男廁所,西嶼鄉公所,0
10016,10016040,小門村,X040000007,小門地質探索館女廁,西嶼鄉小門村11-12號,交通部,23.65384097,119.5173454,特優級,觀光地區及風景區,女廁所,澎湖國家風景區管理處,0
10016,10016030,吉貝村,X030000090,吉貝遊客服務中心殘障,白沙鄉吉貝村182-2號,交通部,23.73903695,119.6119308,特優級,觀光地區及風景區,無障礙廁所,澎湖國家風景區管理處,0
10016,10016030,吉貝村,X030000087,吉貝海上樂園男廁,白沙鄉吉貝村187號,交通部,23.73396919,119.6013737,優等級,觀光地區及風景區,男廁所,澎湖國家風景區管理處北海管理站,0
10016,10016030,通梁村,X030000080,跨海大橋橋頭殘障廁所,白沙鄉通樑村(大橋往西嶼鄉橋頭旁),交通部,23.65833204,119.5545262,特優級,觀光地區及風景區,無障礙廁所,澎湖國家風景區管理處,0
10016,10016010,長安里,X010000012,澎湖公車總站男廁,馬公市民族路16-1號,縣市政府,23.56742905,119.5644665,特優級,,男廁所,澎湖縣政府公共車船管理處,0
10016,10016020,隘門村,X020000084,澎湖機場二樓內候機室北側親子廁,湖西鄉隘門村126-5號,交通部,23.56003372,119.6303201,特優級,,親子廁所,交通部民用航空局馬公航空站,0
10016,10016020,隘門村,X020000080,澎湖機場二樓內候機室南側親子廁,湖西鄉隘門村126-5號,交通部,23.56052544,119.6302986,特優級,,親子廁所,交通部民用航空局馬公航空站,0
10016,10016020,隘門村,X020000079,澎湖機場二樓內候機室南側無障礙廁,湖西鄉隘門村126-5號,交通部,23.55995504,119.6302772,特優級,,無障礙廁所,交通部民用航空局馬公航空站,0
10016,10016020,隘門村,X020000075,澎湖機場二樓外候機室北側女廁,湖西鄉隘門村126-5號,交通部,23.56046644,119.6303844,特優級,,女廁所,交通部民用航空局馬公航空站,0
10016,10016020,隘門村,X020000074,澎湖機場二樓外候機室北側男廁,湖西鄉隘門村126-5號,交通部,23.56060412,119.6302557,特優級,,男廁所,交通部民用航空局馬公航空站,0
10016,10016020,隘門村,X020000073,澎湖機場二樓外候機室南側無障礙廁,湖西鄉隘門村126-5號,交通部,23.56034842,119.6293652,特優級,,無障礙廁所,交通部民用航空局馬公航空站,0
10016,10016020,隘門村,X020000068,澎湖機場一樓國際線候機室男廁,湖西鄉隘門村126-5號,交通部,23.56063362,119.6294349,特優級,,男廁所,交通部民用航空局馬公航空站,0
10016,10016020,隘門村,X020000067,澎湖機場一樓外候機室北側女廁,湖西鄉隘門村126-5號,交通部,23.56087457,119.6295208,特優級,,女廁所,交通部民用航空局馬公航空站,0
10016,10016020,隘門村,X020000066,澎湖機場一樓外候機室北側男廁,湖西鄉隘門村126-5號,交通部,23.56055495,119.629451,特優級,,男廁所,交通部民用航空局馬公航空站,0
10016,10016020,隘門村,X020000065,澎湖機場一樓外候機室南側親子廁,湖西鄉隘門村126-5號,交通部,23.56056478,119.6294725,特優級,,親子廁所,交通部民用航空局馬公航空站,0
10016,10016020,隘門村,X020000064,澎湖機場一樓外候機室南側無障礙廁所,湖西鄉隘門村126-5號,交通部,23.56067296,119.6294725,特優級,,無障礙廁所,交通部民用航空局馬公航空站,0
10016,10016020,隘門村,X020000063,澎湖機場一樓外候機室南側女廁,湖西鄉隘門村126-5號,交通部,23.56080081,119.6295583,特優級,,女廁所,交通部民用航空局馬公航空站,0
10016,10016020,隘門村,X020000062,澎湖機場一樓外候機室南側男廁,湖西鄉隘門村126-5號,交通部,23.56093849,119.6296656,特優級,,男廁所,交通部民用航空局馬公航空站,0
10016,10016010,西文里,X010000371,文澳公有零售市場後殘障,馬公市文德路5號,縣市政府,23.56523607,119.5820725,特優級,,無障礙廁所,馬公市公所,0
10016,10016010,西文里,X010000370,文澳公有零售市場後男廁,馬公市文德路5號,縣市政府,23.56522623,119.5821261,特優級,,男廁所,馬公市公所,0
10016,10016010,西文里,X010000369,文澳公有零售市場後女廁,馬公市文德路5號,縣市政府,23.56504922,119.5821905,特優級,,女廁所,馬公市公所,0
10016,10016010,西文里,X010000368,文澳公有零售市場前殘障,馬公市文德路3號,縣市政府,23.56464602,119.5816219,優等級,,無障礙廁所,馬公市公所,0
10016,10016010,西文里,X010000367,文澳公有零售市場前女廁,馬公市文德路3號,縣市政府,23.56459685,119.581579,優等級,,女廁所,馬公市公所,0
10016,10016010,西文里,X010000366,文澳公有零售市場前男廁,馬公市文德路3號,縣市政府,23.56473453,119.5816863,優等級,,男廁所,馬公市公所,0
10016,10016020,城北村,X020000056,澎湖縣政府環境保護局1樓殘廁,澎湖縣湖西鄉城北村,縣市政府,23.5619416,119.6131754,特優級,民眾洽公場所,無障礙廁所,澎湖縣政府環境保護局,0
10016,10016020,城北村,X020000055,澎湖縣政府環境保護局1樓女廁,澎湖縣湖西鄉城北村,縣市政府,23.56190226,119.6130466,特優級,民眾洽公場所,女廁所,澎湖縣政府環境保護局,0
10016,10016020,城北村,X020000054,澎湖縣政府環境保護局1樓男廁,澎湖縣湖西鄉城北村,縣市政府,23.56217762,119.6130466,特優級,民眾洽公場所,男廁所,澎湖縣政府環境保護局,0
10016,10016020,城北村,X020000053,澎湖縣政府環境保護局2樓殘廁,澎湖縣湖西鄉城北村,縣市政府,23.56186292,119.6130896,特優級,民眾洽公場所,無障礙廁所,澎湖縣政府環境保護局,0
10016,10016020,城北村,X020000052,澎湖縣政府環境保護局2樓女廁,澎湖縣湖西鄉城北村,縣市政府,23.56202027,119.6130896,特優級,民眾洽公場所,女廁所,澎湖縣政府環境保護局,0
10016,10016010,桶盤里,X010000541,桶盤公廁殘廁,澎湖縣馬公市桶盤里,交通部,23.513454,119.517445,優等級,,無障礙廁所,澎湖國家風景區管理處管理課,0
10016,10016010,桶盤里,X010000540,桶盤公廁女廁,澎湖縣馬公市桶盤里,交通部,23.51233389,119.5176485,優等級,,女廁所,澎湖國家風景區管理處管理課,0
10016,10016010,桶盤里,X010000539,桶盤公廁男廁,澎湖縣馬公市桶盤里,交通部,23.51233266,119.5176566,優等級,,男廁所,澎湖國家風景區管理處管理課,0
10016,10016030,吉貝村,X030000100,吉貝西崁山無障礙廁,澎湖縣白沙鄉吉貝村(西崁山),交通部,23.741799,119.613301,特優級,觀光地區及風景區,無障礙廁所,澎湖國家風景區管理處,0
10016,10016050,東安村,X050000013,網垵口親子廁所,澎湖縣望安鄉東安村,交通部,23.35642043,119.5030171,特優級,觀光地區及風景區,親子廁所,澎湖國家風景區管理處,0
10016,10016050,東安村,X050000012,網垵口女廁,澎湖縣望安鄉東安村,交通部,23.35640073,119.5030171,特優級,觀光地區及風景區,女廁所,澎湖國家風景區管理處,0
10016,10016010,虎井里,X010000538,虎井西山無障礙公廁,澎湖縣馬公市虎井里,交通部,23.48716449,119.5110798,特優級,觀光地區及風景區,無障礙廁所,澎湖國家風景區管理處管理課,0
10016,10016010,虎井里,X010000537,虎井西山女廁,澎湖縣馬公市虎井里,交通部,23.48724321,119.5110691,特優級,觀光地區及風景區,女廁所,澎湖國家風景區管理處管理課,0
10016,10016010,虎井里,X010000536,虎井西山男廁,澎湖縣馬公市虎井里,交通部,23.48713005,119.5111227,特優級,觀光地區及風景區,男廁所,澎湖國家風景區管理處管理課,0
10016,10016050,東安村,X050000002,望安綠觿龜保育中心女廁,澎湖縣望安鄉東安村1-14號,交通部,23.3639,119.506798,特優級,觀光地區及風景區,女廁所,澎湖國家風景區管理處,0
10016,10016050,東安村,X050000001,望安綠觿龜保育中心男廁,澎湖縣望安鄉東安村1-14號,交通部,23.3639,119.506798,特優級,觀光地區及風景區,男廁所,澎湖國家風景區管理處,0
10016,10016040,竹灣村,X040000019,大義宮男廁,澎湖縣西嶼鄉竹灣村無,其他,23.63237602,119.520607,特優級,宗教禮儀場所,男廁所,大義宮管委會,0
10016,10016040,竹灣村,X040000018,大義宮女廁,澎湖縣西嶼鄉竹灣村無,其他,23.63263158,119.5213795,特優級,宗教禮儀場所,女廁所,大義宮管委會,0
10016,10016030,吉貝村,X030000089,吉貝遊客服務中心男廁,白沙鄉吉貝村182-2號,交通部,23.73887982,119.6119738,特優級,觀光地區及風景區,男廁所,澎湖國家風景區管理處,0
10016,10016030,吉貝村,X030000088,吉貝遊客服務中心女廁,白沙鄉吉貝村182-2號,交通部,23.73899767,119.61133,特優級,觀光地區及風景區,女廁所,澎湖國家風景區管理處,0
10016,10016030,通梁村,X030000079,跨海大橋橋頭公廁男廁,白沙鄉通樑村(大橋往西嶼鄉橋頭旁),交通部,23.65830747,119.5544726,特優級,觀光地區及風景區,男廁所,澎湖國家風景區管理處,0
10016,10016030,通梁村,X030000086,通樑社區殘障,白沙鄉通樑村,交通部,23.65613075,119.5574927,特優級,社福機構、集會場所,無障礙廁所,澎湖國家風景區管理處,0
10016,10016030,後寮村,X030000067,後寮遊客服務中心殘障,白沙鄉後寮村104-18號,交通部,23.67068416,119.5705819,特優級,,無障礙廁所,澎湖國家風景區管理處,0
10016,10016030,後寮村,X030000066,後寮遊客服務中心男廁,白沙鄉後寮村104-18號,交通部,23.67069398,119.5706034,特優級,,男廁所,澎湖國家風景區管理處,0
10016,10016030,吉貝村,X030000096,吉貝海上樂園無障礙廁,澎湖縣白沙鄉吉貝村,交通部,23.73887982,119.6080256,特優級,觀光地區及風景區,無障礙廁所,澎湖國家風景區管理處,0
10016,10016010,虎井里,X010000535,虎井資訊站無障礙公廁,澎湖縣馬公市虎井里,交通部,23.48766632,119.5175064,特優級,觀光地區及風景區,無障礙廁所,澎湖國家風景區管理處,0
10016,10016010,虎井里,X010000534,虎井資訊站女廁,澎湖縣馬公市虎井里,交通部,23.48771552,119.5175064,特優級,觀光地區及風景區,女廁所,澎湖國家風景區管理處,0
10016,10016010,虎井里,X010000533,虎井資訊站男廁,澎湖縣馬公市虎井里,交通部,23.48758268,119.5176029,特優級,觀光地區及風景區,男廁所,澎湖國家風景區管理處,0
10016,10016030,瓦硐村,X030000064,瓦硐社區活動中心無障礙廁所,澎湖縣白沙鄉瓦硐村四○之二號,其他,23.6564096,119.5883234,特優級,社福機構、集會場所,無障礙廁所,白沙鄉公所,0
10016,10016030,瓦硐村,X030000063,瓦硐社區活動中心女廁,澎湖縣白沙鄉瓦硐村四○之二號,其他,23.65638257,119.5880203,特優級,社福機構、集會場所,女廁所,白沙鄉公所,0
10016,10016030,瓦硐村,X030000062,瓦硐社區活動中心男廁,澎湖縣白沙鄉瓦硐村四○之二號,其他,23.65444,119.589751,特優級,社福機構、集會場所,男廁所,白沙鄉公所,0
10016,10016030,赤崁村,X030000061,赤崁攤販集中場無障礙廁所,澎湖縣白沙鄉赤崁村,其他,23.66728425,119.6019745,特優級,社福機構、集會場所,無障礙廁所,白沙鄉公所,0
10016,10016030,赤崁村,X030000060,赤崁攤販集中場女廁,澎湖縣白沙鄉赤崁村,其他,23.66713685,119.601481,特優級,社福機構、集會場所,女廁所,白沙鄉公所,0
10016,10016030,赤崁村,X030000059,赤崁攤販集中場男廁,澎湖縣白沙鄉赤崁村,其他,23.711776,119.609153,特優級,社福機構、集會場所,男廁所,白沙鄉公所,0
10016,10016060,平和村,X060000008,七美機場候機室女廁,七美鄉平和村55號,交通部,23.21186683,119.4177175,特優級,,女廁所,交通部民用航空局七美航空站,0
10016,10016060,平和村,X060000007,七美機場候機室男廁,七美鄉平和村55號,交通部,23.21188655,119.4177389,特優級,,男廁所,交通部民用航空局七美航空站,0
10016,10016050,中社村,X050000026,望安機場候機室殘障,望安鄉中社村,交通部,23.36743191,119.5019817,特優級,,無障礙廁所,交通部民用航空局望安航空站,0
10016,10016020,隘門村,X020000083,澎湖機場二樓內候機室北側無障礙廁,湖西鄉隘門村126-5號,交通部,23.55999438,119.6303415,特優級,,無障礙廁所,交通部民用航空局馬公航空站,0
10016,10016020,隘門村,X020000082,澎湖機場二樓內候機室北側女廁,湖西鄉隘門村126-5號,交通部,23.56013206,119.6302128,特優級,,女廁所,交通部民用航空局馬公航空站,0
10016,10016020,隘門村,X020000081,澎湖機場二樓內候機室北側男廁,湖西鄉隘門村126-5號,交通部,23.5601714,119.6302557,特優級,,男廁所,交通部民用航空局馬公航空站,0
10016,10016020,隘門村,X020000078,澎湖機場二樓內候機室南側女廁,湖西鄉隘門村126-5號,交通部,23.56013698,119.6302342,特優級,,女廁所,交通部民用航空局馬公航空站,0
10016,10016020,隘門村,X020000077,澎湖機場二樓內候機室南側男廁,湖西鄉隘門村126-5號,交通部,23.56034842,119.6304703,特優級,,男廁所,交通部民用航空局馬公航空站,0
10016,10016020,隘門村,X020000076,澎湖機場二樓外候機室北側無障礙廁,湖西鄉隘門村126-5號,交通部,23.56032875,119.6304488,特優級,,無障礙廁所,交通部民用航空局馬公航空站,0
10016,10016020,隘門村,X020000072,澎湖機場二樓外候機室南側女廁,湖西鄉隘門村126-5號,交通部,23.56046644,119.6294564,特優級,,女廁所,交通部民用航空局馬公航空站,0
10016,10016020,隘門村,X020000071,澎湖機場二樓外候機室南側男廁,湖西鄉隘門村126-5號,交通部,23.56049594,119.6294081,特優級,,男廁所,交通部民用航空局馬公航空站,0
10016,10016020,隘門村,X020000070,澎湖機場一樓國際線候機室無障礙廁,湖西鄉隘門村126-5號,交通部,23.56049102,119.6293867,特優級,,無障礙廁所,交通部民用航空局馬公航空站,0
10016,10016020,隘門村,X020000069,澎湖機場一樓國際線候機室女廁,湖西鄉隘門村126-5號,交通部,23.56055003,119.6294028,特優級,,女廁所,交通部民用航空局馬公航空站,0
10016,10016010,陽明里,X010000361,澎湖縣立文化中心男廁,馬公市中華路230號,縣市政府,23.57132324,119.5775664,特優級,文化育樂活動場所,男廁所,澎湖縣政府文化局,0
10016,10016010,光復里,X010000106,南海遊客服務中心男廁3,馬公市新營路25號,交通部,23.56613097,119.5718265,特優級,,男廁所,交通部觀光局澎湖國家風景區管理處,0
10016,10016010,光復里,X010000105,南海遊客服務中心男廁2,馬公市新營路25號,交通部,23.56635715,119.5721161,特優級,,男廁所,交通部觀光局澎湖國家風景區管理處,0
10016,10016010,光復里,X010000104,南海遊客服務中心男廁1,馬公市新營路25號,交通部,23.5668046,119.5725399,特優級,,男廁所,交通部觀光局澎湖國家風景區管理處,0
10016,10016010,中興里,X010000095,澎湖縣長青活動中心男廁,澎湖縣馬公市介壽路7-1號,縣市政府,23.567373,119.561568,特優級,社福機構、集會場所,男廁所,澎湖縣政府社會處,0
10016,10016010,中興里,X010000029,觀音亭運動公園南女廁,馬公市介壽路,縣市政府,23.56898281,119.5627928,特優級,公園,女廁所,林務公園管理所,0
10016,10016010,中興里,X010000092,救國團青年活動中心男廁,馬公市介壽路11號,其他,23.56855012,119.5637155,特優級,社福機構、集會場所,男廁所,救國團總部,0
10016,10016060,南港村,X060000012,七美旅客服務中心無障礙廁,澎湖縣七美鄉南港村南滬59號,交通部,23.195778,119.419248,特優級,觀光地區及風景區,無障礙廁所,交通部觀光局澎湖國家風景區管理處,0
10016,10016010,五德里,X010000564,五德自行園區無障礙廁,澎湖縣馬公市五德里四一號之一一,交通部,23.52674,119.59178,特優級,觀光地區及風景區,無障礙廁所,澎湖國家風景區管理處,0
10016,10016010,五德里,X010000563,五德自行園區女廁,澎湖縣馬公市五德里四一號之一一,交通部,23.52672,119.59171,特優級,觀光地區及風景區,女廁所,澎湖國家風景區管理處,0
10016,10016010,五德里,X010000562,五德自行園區男廁,澎湖縣馬公市五德里四一號之一一,交通部,23.526728,119.591718,特優級,觀光地區及風景區,男廁所,澎湖國家風景區管理處,0
10016,10016010,山水里,X010000486,山水30高地公廁無障礙廁,澎湖縣馬公市山水里(30公園停車場),縣市政府,23.5125819,119.5877069,特優級,觀光地區及風景區,無障礙廁所,澎湖縣政府旅遊處,0
10016,10016010,山水里,X010000485,山水30高地公廁女廁,澎湖縣馬公市山水里(30公園停車場),縣市政府,23.513653,119.595918,優等級,觀光地區及風景區,女廁所,澎湖縣政府旅遊處,0
10016,10016010,山水里,X010000484,山水30高地公廁男廁,澎湖縣馬公市山水里(30公園停車場),縣市政府,23.513653,119.595918,優等級,觀光地區及風景區,男廁所,澎湖縣政府旅遊處,0
10016,10016020,龍門村,X020000128,龍門閉鎖陣地無障礙廁,澎湖縣湖西鄉龍門村漁港旁,縣市政府,23.56539,119.675994,特優級,觀光地區及風景區,無障礙廁所,澎湖縣政府旅遊處,0
10016,10016020,龍門村,X020000127,龍門閉鎖陣地女廁,澎湖縣湖西鄉龍門村漁港旁,縣市政府,23.56539,119.675994,特優級,觀光地區及風景區,女廁所,澎湖縣政府旅遊處,0
10016,10016020,龍門村,X020000126,龍門閉鎖陣地男廁,澎湖縣湖西鄉龍門漁港旁,縣市政府,23.55574581,119.6756709,特優級,觀光地區及風景區,男廁所,澎湖縣政府旅遊處,0
10016,10016010,中興里,X010000091,澎湖縣政府第3棟辦公大樓5樓女廁,澎湖縣馬公市中興里治平路32號,縣市政府,23.57040871,119.5664728,特優級,,女廁所,澎湖縣政府,0
10016,10016010,中興里,X010000090,澎湖縣政府第3棟辦公大樓5樓男廁,澎湖縣馬公市中興里治平路32號,縣市政府,23.57088072,119.5664835,特優級,,男廁所,澎湖縣政府,0
10016,10016010,中興里,X010000089,澎湖縣政府第3棟辦公大樓4樓女廁,澎湖縣馬公市中興里治平路32號,縣市政府,23.57040871,119.5665264,特優級,,女廁所,澎湖縣政府,0
10016,10016030,通梁村,X030000083,通樑汽車加油站無障礙廁所,澎湖縣白沙鄉通梁村25-1號,其他,23.65954569,119.5627713,特優級,,無障礙廁所,通樑加油站,0
10016,10016030,吉貝村,X030000095,吉貝海上樂園女廁,澎湖縣白沙鄉吉貝村,交通部,23.73346093,119.6033156,優等級,觀光地區及風景區,女廁所,澎湖國家風景區管理處北海管理站,0
10016,10016030,吉貝村,X030000094,吉貝社區女廁,澎湖縣白沙鄉吉貝村,交通部,23.74145659,119.6127945,優等級,觀光地區及風景區,女廁所,澎湖國家風景區管理處北海管理站,0
10016,10016030,吉貝村,X030000093,吉貝社區男廁,澎湖縣白沙鄉吉貝村,交通部,23.74144432,119.6127972,優等級,觀光地區及風景區,男廁所,澎湖國家風景區管理處北海管理站,0
10016,10016030,岐頭村,X030000038,岐頭遊客中心殘廁,澎湖縣白沙鄉岐頭村,交通部,23.65165925,119.6099997,特優級,,無障礙廁所,澎湖國家風景區管理處,0
10016,10016030,岐頭村,X030000037,岐頭遊客中心女廁,澎湖縣白沙鄉岐頭村16-5號,交通部,23.649513,119.609282,特優級,,女廁所,澎湖國家風景區管理處,0
10016,10016030,岐頭村,X030000036,岐頭遊客中心男廁,澎湖縣白沙鄉岐頭村,交通部,23.65195408,119.6093559,特優級,,男廁所,澎湖國家風景區管理處,0
10016,10016040,小門村,X040000015,西嶼福利館親子廁所,澎湖縣西嶼鄉小門村11-9號2樓,縣市政府,23.65407928,119.5166266,特優級,文化育樂活動場所,親子廁所,西嶼福利館,0
10016,10016040,小門村,X040000014,西嶼福利館女廁,澎湖縣西嶼鄉小門村11-9號2樓,縣市政府,23.65410877,119.5166159,特優級,文化育樂活動場所,女廁所,西嶼福利館,0
10016,10016040,小門村,X040000013,西嶼福利館男廁,澎湖縣西嶼鄉小門村11-9號2樓,縣市政府,23.65408911,119.5166266,特優級,文化育樂活動場所,男廁所,西嶼福利館,0
10016,10016010,光華里,X010000415,澎湖休憩園區女廁2(林務所旁),澎湖縣馬公市光華里,縣市政府,23.5577521,119.6044207,特優級,公園,女廁所,林務公園管理所,0
10016,10016010,光華里,X010000414,澎湖休憩園區男廁2(林務所旁),澎湖縣馬公市光華里,縣市政府,23.55802747,119.6045494,特優級,公園,男廁所,林務公園管理所,0
10016,10016010,光華里,X010000413,澎湖休憩園區殘廁1(水土教室旁),澎湖縣馬公市光華里,縣市政府,23.55842085,119.6060085,特優級,公園,無障礙廁所,林務公園管理所,0
10016,10016010,光華里,X010000412,澎湖休憩園區女廁1(水土教室旁),澎湖縣馬公市光華里,縣市政府,23.55842085,119.6062231,特優級,公園,女廁所,林務公園管理所,0
10016,10016010,光華里,X010000411,澎湖休憩園區男廁1(水土教室旁),澎湖縣馬公市光華里,縣市政府,23.55749,119.600633,特優級,公園,男廁所,林務公園管理所,0
10016,10016040,大池村,X040000021,大池治安宮公廁,澎湖縣西嶼鄉大池村,其他,23.616164,119.506815,特優級,宗教禮儀場所,混合廁所,治安宮管理委員會,0
10016,10016010,菜園里,X010000473,菜園候船室女廁,澎湖縣馬公市菜園里,交通部,23.54926204,119.595446,特優級,,女廁所,澎湖國家風景區管理處管理課,0
10016,10016010,菜園里,X010000472,菜園候船室男廁,澎湖縣馬公市菜園里,交通部,23.54925221,119.5954406,特優級,,男廁所,澎湖國家風景區管理處管理課,0
10016,10016010,菜園里,X010000471,菜園里無障礙廁所,澎湖縣馬公市菜園里,交通部,23.555789,119.596729,特優級,觀光地區及風景區,無障礙廁所,澎湖國家風景區管理處管理課,0
10016,10016010,菜園里,X010000470,菜園里女廁,澎湖縣馬公市菜園里,交通部,23.555789,119.596729,特優級,觀光地區及風景區,女廁所,澎湖國家風景區管理處管理課,0
10016,10016010,菜園里,X010000469,菜園里男廁,澎湖縣馬公市菜園里,交通部,23.555789,119.596729,特優級,觀光地區及風景區,男廁所,澎湖國家風景區管理處管理課,0
10016,10016050,東安村,X050000011,網垵口男廁,澎湖縣望安鄉東安村,交通部,23.35640073,119.5030385,特優級,觀光地區及風景區,男廁所,澎湖國家風景區管理處,0
10016,10016020,潭邊村,X020000042,潭邊社區公廁,澎湖縣湖西鄉潭邊村47-1號,縣市政府,23.59482971,119.607937,特優級,社福機構、集會場所,混合廁所,潭邊社區發展協會,0
10016,10016030,小赤村,X030000040,小赤社區活動中心無障礙廁所,澎湖縣白沙鄉小赤村11-8號,縣市政府,23.65977416,119.5975596,優等級,社福機構、集會場所,無障礙廁所,白沙鄉公所,0
10016,10016030,小赤村,X030000039,小赤社區活動中心廁所,澎湖縣白沙鄉小赤村11-8號,縣市政府,23.6597152,119.5975488,優等級,社福機構、集會場所,混合廁所,白沙鄉公所,0
10016,10016010,中興里,X010000032,觀音亭運動公園北殘廁,澎湖縣馬公市中興里觀音亭園區,縣市政府,23.56848128,119.5630181,特優級,公園,無障礙廁所,林務公園管理所,0
10016,10016010,中興里,X010000031,觀音亭運動公園北女廁,澎湖縣馬公市中興里觀音槀園區,縣市政府,23.56833869,119.5629483,特優級,公園,女廁所,林務公園管理所,0
10016,10016010,中興里,X010000030,觀音亭運動公園北男廁,澎湖縣馬公市中興里觀音亭園區,縣市政府,23.56841245,119.562943,特優級,公園,男廁所,林務公園管理所,0
10016,10016040,外垵村,X040000074,西嶼西臺遊客中心殘廁,,交通部,23.56520656,119.4880342,特優級,觀光地區及風景區,無障礙廁所,澎湖國家風景區管理處,0
10016,10016040,外垵村,X040000073,西嶼西臺遊客中心女廁,,交通部,23.56520656,119.4881201,特優級,觀光地區及風景區,女廁所,澎湖國家風景區管理處,0
10016,10016040,外垵村,X040000072,西嶼西臺遊客中心男廁,,交通部,23.56503938,119.4883883,特優級,觀光地區及風景區,男廁所,澎湖國家風景區管理處,0
10016,10016010,鎖港里,X010000497,澎南圖書分館殘廁,澎湖縣馬公市鎖港里309號,縣市政府,23.52852021,119.6026826,特優級,文化育樂活動場所,無障礙廁所,澎湖縣政府文化局,0
10016,10016010,鎖港里,X010000496,澎南圖書分館女廁,澎湖縣馬公市鎖港里309號,縣市政府,23.52846119,119.6027684,特優級,文化育樂活動場所,女廁所,澎湖縣政府文化局,0
10016,10016010,鎖港里,X010000495,澎南圖書分館男廁,澎湖縣馬公市鎖港里309號,縣市政府,23.52844151,119.6026826,特優級,文化育樂活動場所,男廁所,澎湖縣政府文化局,0
10016,10016020,湖西村,X020000029,湖西鄉立圖書館女廁,澎湖縣湖西鄉湖西村43-5號,縣市政府,23.58356065,119.6521908,特優級,文化育樂活動場所,女廁所,湖西鄉公所,0
10016,10016020,湖西村,X020000028,湖西鄉立圖書館男廁,澎湖縣湖西鄉湖西村,縣市政府,23.58359998,119.6521747,特優級,文化育樂活動場所,男廁所,湖西鄉公所,0
10016,10016020,菓葉村,X020000133,觀日樓公廁女廁,澎湖縣湖西鄉菓葉村,交通部,23.58035022,119.6800804,特優級,觀光地區及風景區,女廁所,澎湖國家風景區管理處,0
10016,10016020,菓葉村,X020000132,觀日樓公廁男廁,,交通部,23.5799569,119.6804237,特優級,觀光地區及風景區,男廁所,澎湖國家風景區管理處,0
10016,10016010,西文里,X010000410,澎湖海洋地質公園中心女廁,澎湖縣馬公市西文里新明路七一號,縣市政府,23.566455,119.579037,特優級,文化育樂活動場所,女廁所,澎湖縣政府旅遊處,0
10016,10016010,西文里,X010000409,澎湖海洋地質公園中心男廁,澎湖縣馬公市西文里新明路七一號,縣市政府,23.566455,119.579037,特優級,文化育樂活動場所,男廁所,澎湖縣政府旅遊處,0
10016,10016020,林投村,X020000112,林投公園男廁(南側),湖西鄉林投公園1-1號,交通部,23.56199077,119.6481407,特優級,公園,男廁所,澎湖國家風景區管理處,0
10016,10016020,隘門村,X020000059,隘門沙灘殘障,湖西鄉隘門村79-1號,交通部,23.55480658,119.6383157,特優級,觀光地區及風景區,無障礙廁所,澎湖國家風景區管理處,0
10016,10016020,隘門村,X020000058,隘門沙灘女廁,湖西鄉隘門村79-1號,交通部,23.55483117,119.6384203,特優級,觀光地區及風景區,女廁所,澎湖國家風景區管理處,0
10016,10016010,嵵裡里,X010000524,蒔裡社區公廁女廁,馬公市蒔裡里,其他,23.52495922,119.5703888,特優級,宗教禮儀場所,女廁所,水仙宮管委會,0
10016,10016010,嵵裡里,X010000523,蒔裡社區公廁男廁,馬公市蒔裡里,其他,23.52503791,119.5700455,特優級,宗教禮儀場所,男廁所,水仙宮管委會,0
10016,10016010,光華里,X010000465,澎湖遊客服務中心殘障廁所,澎湖縣馬公市光華里171號,交通部,23.556592,119.606601,特優級,觀光地區及風景區,無障礙廁所,澎湖國家風景區管理處,0
10016,10016010,光華里,X010000464,澎湖遊客服務中心男廁,澎湖縣馬公市光華里171號,交通部,23.556592,119.606601,特優級,觀光地區及風景區,男廁所,澎湖國家風景區管理處,0
10016,10016010,光華里,X010000463,澎湖遊客服務中心女廁,澎湖縣馬公市光華里171號,交通部,23.556592,119.606601,特優級,觀光地區及風景區,女廁所,澎湖國家風景區管理處,0
10016,10016020,龍門村,X020000124,龍門後灣濱海公園女廁,湖西鄉龍門村,交通部,23.5652459,119.682371,特優級,觀光地區及風景區,女廁所,澎湖國家風景區管理處,0
10016,10016020,龍門村,X020000123,龍門後灣濱海公園男廁,湖西鄉龍門村,交通部,23.56541308,119.6825373,特優級,觀光地區及風景區,男廁所,澎湖國家風景區管理處,0
10016,10016010,陽明里,X010000357,澎湖縣圖書館一樓殘障廁,澎湖縣馬公市陽明里中華路236-1號,縣市政府,23.57028087,119.5779848,特優級,文化育樂活動場所,無障礙廁所,澎湖縣政府文化局,0
10016,10016010,陽明里,X010000356,澎湖縣圖書館一樓女廁,澎湖縣馬公市陽明里中華路236-1號,縣市政府,23.5703202,119.5779634,特優級,文化育樂活動場所,女廁所,澎湖縣政府文化局,0
10016,10016010,陽明里,X010000355,澎湖縣圖書館一樓男廁,澎湖縣馬公市陽明里中華路236-1號,縣市政府,23.5702022,119.5780009,特優級,文化育樂活動場所,男廁所,澎湖縣政府文化局,0
10016,10016010,陽明里,X010000354,演藝廳三樓女廁,澎湖縣馬公市陽明里中華路230號,縣市政府,23.57157891,119.5781457,特優級,文化育樂活動場所,女廁所,澎湖縣政府文化局展演科,0
10016,10016010,陽明里,X010000353,演藝廳三樓男廁,澎湖縣馬公市陽明里中華路230號,縣市政府,23.57140191,119.5781136,特優級,文化育樂活動場所,男廁所,澎湖縣政府文化局展演科,0
10016,10016010,陽明里,X010000352,演藝廳二樓女廁,澎湖縣馬公市陽明里中華路230號,縣市政府,23.57153958,119.5780921,特優級,文化育樂活動場所,女廁所,澎湖縣政府文化局展演科,0
10016,10016010,陽明里,X010000351,演藝廳二樓男廁,澎湖縣馬公市陽明里中華路230號,縣市政府,23.57149041,119.5782316,特優級,文化育樂活動場所,男廁所,澎湖縣政府文化局展演科,0
10016,10016010,陽明里,X010000350,演藝廳一樓女廁,澎湖縣馬公市陽明里中華路230號,縣市政府,23.57154941,119.578253,特優級,文化育樂活動場所,女廁所,澎湖縣政府文化局展演科,0
10016,10016010,陽明里,X010000349,演藝廳一樓男廁,澎湖縣馬公市陽明里中華路230號,縣市政府,23.57148058,119.5781887,特優級,文化育樂活動場所,男廁所,澎湖縣政府文化局展演科,0
10016,10016010,陽明里,X010000108,南海碼頭候船室女廁,澎湖縣馬公市新營路100號,縣市政府,23.567122,119.573642,特優級,,女廁所,澎湖縣政府車船管理處,0
10016,10016010,陽明里,X010000107,南海碼頭候船室男廁,澎湖縣馬公市新營路100號,縣市政府,23.567122,119.573642,特優級,,男廁所,澎湖縣政府車船管理處,0
10016,10016050,東安村,X050000014,台灣中油望安加油站男廁,澎湖縣望安鄉東安村2-14號,經濟部,23.36368929,119.5076036,特優級,,男廁所,台灣中油公司望安站,0
10016,10016060,中和村,X060000032,七美鄉立圖書館無障礙廁,澎湖縣七美鄉中和村4鄰3-1號,縣市政府,23.20648296,119.4310427,特優級,文化育樂活動場所,無障礙廁所,七美鄉公所,0
10016,10016060,中和村,X060000031,七美鄉立圖書館男廁,澎湖縣七美鄉中和村,縣市政府,23.20664073,119.4310856,特優級,文化育樂活動場所,男廁所,七美鄉公所,0
10016,10016060,中和村,X060000030,七美鄉立圖書館女廁,澎湖縣七美鄉中和村,縣市政府,23.20616741,119.4313431,特優級,文化育樂活動場所,女廁所,七美鄉公所,0
10016,10016020,龍門村,X020000125,龍門後灣濱海公園殘障廁,湖西鄉龍門村,交通部,23.56502955,119.6822691,特優級,觀光地區及風景區,無障礙廁所,澎湖國家風景區管理處,0
10016,10016010,西文里,X010000397,生活博物館一樓女廁,澎湖縣馬公市西文里新生路327號,縣市政府,23.5670947,119.5794654,特優級,文化育樂活動場所,女廁所,澎湖縣政府文化局博物館科,0
10016,10016010,西文里,X010000396,生活博物館一樓男廁,澎湖縣馬公市西文里新生路327號,縣市政府,23.5671537,119.5795512,特優級,文化育樂活動場所,男廁所,澎湖縣政府文化局博物館科,0
10016,10016010,西文里,X010000395,生活博物館B1女廁,澎湖縣馬公市西文里新生路327號,縣市政府,23.56707503,119.5795083,特優級,文化育樂活動場所,女廁所,澎湖縣政府文化局博物館科,0
10016,10016010,西文里,X010000394,生活博物館B1男廁,澎湖縣馬公市西文里新生路327號,縣市政府,23.56710453,119.5794117,特優級,文化育樂活動場所,男廁所,澎湖縣政府文化局博物館科,0
10016,10016060,南港村,X060000015,七美人塚無障礙廁,澎湖縣七美鄉南港村,交通部,23.19228269,119.4269657,特優級,觀光地區及風景區,無障礙廁所,澎湖國家風景區管理處,0
10016,10016010,菜園里,X010000474,菜園候船室無障礙公廁,澎湖縣馬公市菜園里,交通部,23.55174543,119.598788,特優級,,無障礙廁所,澎湖國家風景區管理處,0
10016,10016010,中興里,X010000088,澎湖縣政府第3棟辦公大樓4樓男廁,澎湖縣馬公市中興里治平路32號,縣市政府,23.57035954,119.5665264,特優級,,男廁所,澎湖縣政府,0
10016,10016010,中興里,X010000087,澎湖縣政府第3棟辦公大樓3樓女廁,澎湖縣馬公市中興里治平路32號,縣市政府,23.57043821,119.5665264,特優級,,女廁所,澎湖縣政府,0
10016,10016010,中興里,X010000086,澎湖縣政府第3棟辦公大樓3樓男廁,澎湖縣馬公市中興里治平路32號,縣市政府,23.57039887,119.5664406,特優級,,男廁所,澎湖縣政府,0
10016,10016010,中興里,X010000085,澎湖縣政府第3棟辦公大樓2樓女廁,澎湖縣馬公市中興里治平路32號,縣市政府,23.57035954,119.5664513,特優級,,女廁所,澎湖縣政府,0
10016,10016010,中興里,X010000084,澎湖縣政府第3棟辦公大樓2樓男廁,澎湖縣馬公市中興里治平路32號,縣市政府,23.57033987,119.5664942,特優級,,男廁所,澎湖縣政府,0
10016,10016010,嵵裡里,X010000526,嵵裡海水域場女廁,澎湖縣馬公市嵵裡里160號,縣市政府,23.52547566,119.5682135,優等級,民眾洽公場所,女廁所,馬公市公所,0
10016,10016010,嵵裡里,X010000525,嵵裡海水域場男廁,澎湖縣馬公市嵵裡里160號,縣市政府,23.52544369,119.5682886,優等級,民眾洽公場所,男廁所,馬公市公所,0
10016,10016010,中興里,X010000083,澎湖縣政府第3棟辦公大樓1樓女廁,澎湖縣馬公市中興里治平路32號,縣市政府,23.57036937,119.5665479,特優級,,女廁所,澎湖縣政府,0
10016,10016010,中興里,X010000082,澎湖縣政府第3棟辦公大樓1樓男廁,澎湖縣馬公市中興里治平路,縣市政府,23.5703202,119.5665157,特優級,,男廁所,澎湖縣政府,0
10016,10016040,赤馬村,X040000056,西嶼鄉立圖書館無障礙廁所,澎湖縣西嶼鄉赤馬村,縣市政府,23.58438168,119.5067453,特優級,文化育樂活動場所,無障礙廁所,西嶼鄉公所,0
10016,10016040,赤馬村,X040000055,西嶼鄉立圖書館女廁,澎湖縣西嶼鄉赤馬村,縣市政府,23.58443085,119.5067561,特優級,文化育樂活動場所,女廁所,西嶼鄉公所,0
10016,10016040,赤馬村,X040000054,西嶼鄉立圖書館男廁,,縣市政府,23.58399821,119.5050824,特優級,文化育樂活動場所,男廁所,西嶼鄉公所,0
10016,10016040,內垵村,X040000062,東昌營區無障礙廁所,澎湖縣西嶼鄉內垵村,交通部,23.56862879,119.506681,特優級,觀光地區及風景區,無障礙廁所,澎湖國家風景區管理處北海管理站,0
10016,10016020,湖西村,X020000027,湖西鄉公所殘廁,澎湖縣湖西鄉湖西村43-11號,縣市政府,23.58416045,119.6525073,特優級,,無障礙廁所,湖西鄉公所,0
10016,10016020,湖西村,X020000026,湖西鄉公所女廁,澎湖縣湖西鄉湖西村43-11號,縣市政府,23.58420961,119.6524537,特優級,,女廁所,湖西鄉公所,0
10016,10016020,湖西村,X020000025,湖西鄉公所男廁,澎湖縣湖西鄉湖西村43-11號,縣市政府,23.58420469,119.6524483,特優級,,男廁所,湖西鄉公所,0
10016,10016030,後寮村,X030000074,後寮社區公廁男廁,白沙鄉後寮村45號,縣市政府,23.66706807,119.5750344,優等級,宗教禮儀場所,男廁所,白沙鄉公所,0
10016,10016030,港子村,X030000022,港子社區活動中心女廁,白沙鄉港子村54號,縣市政府,23.64900576,119.5996141,特優級,宗教禮儀場所,女廁所,白沙鄉公所,0
10016,10016020,隘門村,X020000057,隘門沙灘男廁,湖西鄉隘門村79-1號,交通部,23.55482133,119.6383023,特優級,觀光地區及風景區,男廁所,澎湖國家風景區管理處,0
10016,10016010,重慶里,X010000022,台灣中油馬公加油站男廁,澎湖縣馬公市民福路18號,經濟部,23.564964,119.568673,特優級,,男廁所,台灣中油公司馬公站,0
10016,10016060,南港村,X060000014,七美人塚女廁,七美鄉南港村1-4號,交通部,23.19239117,119.4272017,特優級,觀光地區及風景區,女廁所,澎湖國家風景區管理處,0
10016,10016060,南港村,X060000013,七美人塚男廁,七美鄉南港村1-4號,交通部,23.19250951,119.4269443,特優級,觀光地區及風景區,男廁所,澎湖國家風景區管理處,0
10016,10016050,東安村,X050000018,潭門港旅客服務中心殘障,望安鄉東安村1號,交通部,23.36215281,119.5074964,優等級,,無障礙廁所,澎湖國家風景區管理處,0
10016,10016050,東安村,X050000017,潭門港旅客服務中心女廁,望安鄉東安村1號,交通部,23.36210357,119.5074534,優等級,,女廁所,澎湖國家風景區管理處,0
10016,10016050,東安村,X050000016,潭門港旅客服務中心男廁,望安鄉東安村1號,交通部,23.36217251,119.5075178,優等級,,男廁所,澎湖國家風景區管理處,0
10016,10016010,長安里,X010000013,"澎湖公車總站 女廁",馬公市民族路16-1號,縣市政府,23.56687835,119.5644236,特優級,,女廁所,澎湖縣政府公共車船管理處,0
10016,10016020,隘門村,X020000061,澎湖機場地下室女廁,湖西鄉隘門村126-5號,交通部,23.56097783,119.6296978,特優級,,女廁所,交通部民用航空局馬公航空站,0
10016,10016020,隘門村,X020000060,澎湖機場地下室男廁,湖西鄉隘門村126-5號,交通部,23.56103683,119.6298265,特優級,,男廁所,交通部民用航空局馬公航空站,0
10016,10016010,陽明里,X010000306,北辰公有零售市場後性別友善公廁,馬公市北辰街20號,縣市政府,23.57085122,119.5708984,特優級,,性別友善廁所,馬公市公所,0
10016,10016010,陽明里,X010000305,北辰公有零售市場後無障礙公廁,馬公市北辰街20號,縣市政府,23.57083156,119.5708716,特優級,,無障礙廁所,馬公市公所,0
10016,10016010,前寮里,X010000438,三總二樓復健區前無障礙廁所,澎湖縣馬公市前寮里90號,國防部,23.55462463,119.5838642,特優級,,無障礙廁所,三軍總醫院澎湖分院,0
10016,10016010,前寮里,X010000437,三總二樓復健區前公廁,澎湖縣馬公市前寮里90號,國防部,23.55486067,119.5842075,特優級,,混合廁所,三軍總醫院澎湖分院,0
10016,10016010,前寮里,X010000436,三總二樓體檢區前女廁,澎湖縣馬公市前寮里90號,國防部,23.55446727,119.5842075,特優級,,女廁所,三軍總醫院澎湖分院,0
10016,10016010,前寮里,X010000435,三總二樓體檢區前男廁,澎湖縣馬公市前寮里90號,國防部,23.55462463,119.583993,特優級,,男廁所,三軍總醫院澎湖分院,0
10016,10016010,前寮里,X010000434,三總二樓檢驗科前女廁,澎湖縣馬公市前寮里90號,國防部,23.55466397,119.5840788,特優級,,女廁所,三軍總醫院澎湖分院,0
10016,10016010,前寮里,X010000433,三總二樓檢驗科前男廁,澎湖縣馬公市前寮里90號,國防部,23.55448694,119.5838642,特優級,,男廁所,三軍總醫院澎湖分院,0
10016,10016010,前寮里,X010000432,三總二樓門診區無障礙廁所,澎湖縣馬公市前寮里90號,國防部,23.55458529,119.58395,特優級,,無障礙廁所,三軍總醫院澎湖分院,0
10016,10016010,前寮里,X010000431,三總二樓門診區公廁,澎湖縣馬公市前寮里90號,國防部,23.55458529,119.58395,特優級,,混合廁所,三軍總醫院澎湖分院,0
10016,10016010,前寮里,X010000430,三總急診室無障礙廁所,澎湖縣馬公市前寮里90號,國防部,23.55462463,119.5838642,特優級,,無障礙廁所,三軍總醫院澎湖分院,0
10016,10016030,通梁村,X030000078,跨海大橋橋頭公廁女廁,白沙鄉通樑村(大橋往西嶼鄉橋頭旁),交通部,23.65836644,119.554553,特優級,觀光地區及風景區,女廁所,澎湖國家風景區管理處,0
10016,10016030,通梁村,X030000085,通樑社區男廁,白沙鄉通樑村,交通部,23.65617006,119.5575571,特優級,社福機構、集會場所,男廁所,澎湖國家風景區管理處,0
10016,10016030,通梁村,X030000084,通樑社區女廁,白沙鄉通樑村,交通部,23.65618971,119.5575356,特優級,社福機構、集會場所,女廁所,澎湖國家風景區管理處,0
10016,10016030,後寮村,X030000065,後寮遊客服務中心女廁,白沙鄉後寮村104-18號,交通部,23.67072346,119.5707536,特優級,,女廁所,澎湖國家風景區管理處,0
10016,10016030,後寮村,X030000075,後寮社區公廁女廁,白沙鄉後寮村45號,縣市政府,23.66710737,119.5750773,特優級,宗教禮儀場所,女廁所,白沙鄉公所,0
10016,10016060,平和村,X060000009,七美機場候機室無障礙廁,七美鄉平和村55號,交通部,23.21220208,119.4177818,特優級,,無障礙廁所,交通部民用航空局七美航空站,0
10016,10016050,中社村,X050000025,望安機場候機室女廁,望安鄉中社村,交通部,23.3675107,119.5019388,特優級,,女廁所,交通部民用航空局望安航空站,0
10016,10016050,中社村,X050000024,望安機場候機室男廁,望安鄉中社村,交通部,23.36760426,119.5018154,特優級,,男廁所,交通部民用航空局望安航空站,0
10016,10016010,中興里,X010000093,救國團青年活動中心女廁,馬公市介壽路11號,其他,23.56851078,119.5637155,特優級,社福機構、集會場所,女廁所,救國團總部,0
10016,10016030,港子村,X030000021,港子社區活動中心男廁,白沙鄉港子村54號,縣市政府,23.64900576,119.5996571,特優級,宗教禮儀場所,男廁所,白沙鄉公所,0
10016,10016020,林投村,X020000114,林投公園殘障(南側),湖西鄉林投公園1-1號,交通部,23.56023041,119.642272,特優級,公園,無障礙廁所,澎湖國家風景區管理處,0
10016,10016020,林投村,X020000113,林投公園女廁(南側),湖西鄉林投村1-1號,交通部,23.55983703,119.6427441,特優級,公園,女廁所,澎湖國家風景區管理處,0
10016,10016060,南港村,X060000011,七美旅客服務中心女廁,澎湖縣七美鄉南港村南滬59號,交通部,23.195778,119.419248,特優級,觀光地區及風景區,女廁所,澎湖國家風景區管理處,0
10016,10016030,赤崁村,X030000043,赤崁漁港加油站殘障,澎湖縣白沙鄉赤崁村37號,其他,23.66687154,119.6026826,特優級,,無障礙廁所,中油公司,0
10016,10016030,赤崁村,X030000042,赤崁漁港加油站男廁,澎湖縣白沙鄉大赤崁村37號,其他,23.66687154,119.6026826,特優級,,男廁所,中油公司,0
10016,10016030,赤崁村,X030000041,赤崁漁港加油站女廁,白沙鄉赤崁村37號,其他,23.66752991,119.6029723,特優級,,女廁所,中油公司,0
10016,10016010,長安里,X010000014,澎湖公車總站殘障,馬公市民族路16-1號,縣市政府,23.56698653,119.5644343,特優級,,無障礙廁所,澎湖縣政府公共車船管理處,0
10016,10016060,南港村,X060000010,七美旅客服務中心男廁,澎湖縣七美鄉南港村南滬59號,交通部,23.195778,119.419248,特優級,觀光地區及風景區,男廁所,澎湖國家風景區管理處,0
10016,10016010,虎井里,X010000561,虎井活動中心二樓女廁,澎湖縣馬公市虎井里,縣市政府,23.48653473,119.5162082,優等級,社福機構、集會場所,女廁所,馬公市公所,0
10016,10016010,虎井里,X010000560,虎井活動中心二樓男廁,澎湖縣馬公市虎井里,縣市政府,23.48653473,119.5161116,優等級,社福機構、集會場所,男廁所,馬公市公所,0
